{"type": "FeatureCollection", "features": [{"type": "Feature", "properties": {"province": "Almería"}, "geometry": {"type": "MultiPolygon", "coordinates": [[[[-3.03314, 35.93816], [-3.03666, 35.93981], [-3.03103, 35.94152], [-3.03314, 35.93816]]], [[[-3.02999, 35.94205], [-3.03017, 35.94225], [-3.02996, 35.94215], [-3.02999, 35.94205]]], [[[-2.55473, 36.81689], [-2.56131, 36.81324], [-2.5624, 36.81296], [-2.5577, 36.81575], [-2.56192, 36.81613], [-2.56844, 36.81112], [-2.59917, 36.77591], [-2.60627, 36.75491], [-2.60303, 36.75734], [-2.61965, 36.72696], [-2.65013, 36.70029], [-2.67362, 36.69452], [-2.70033, 36.683], [-2.72521, 36.6852], [-2.76378, 36.68085], [-2.77723, 36.68886], [-2.78095, 36.6874], [-2.78609, 36.69371], [-2.79169, 36.69334], [-2.79731, 36.6955], [-2.79799, 36.69602], [-2.79114, 36.69374], [-2.78755, 36.69657], [-2.79277, 36.69482], [-2.78891, 36.69848], [-2.79403, 36.69559], [-2.79741, 36.7004], [-2.8156, 36.70629], [-2.83296, 36.70372], [-2.84948, 36.69547], [-2.85873, 36.69948], [-2.90003, 36.73973], [-2.92537, 36.7517], [-2.94169, 36.7506], [-2.97768, 36.73832], [-2.99082, 36.74451], [-3.00795, 36.74127], [-3.01584, 36.74502], [-3.01915, 36.74301], [-3.01777, 36.74509], [-3.02179, 36.74734], [-3.02235, 36.74414], [-3.019, 36.74169], [-3.01976, 36.74068], [-3.03537, 36.74768], [-3.07118, 36.74542], [-3.12869, 36.75086], [-3.13685, 36.76643], [-3.134, 36.78132], [-3.14019, 36.78778], [-3.09268, 36.80977], [-3.07395, 36.82468], [-3.04281, 36.83188], [-3.02901, 36.84444], [-3.03208, 36.86094], [-3.04327, 36.87912], [-3.05664, 36.88506], [-3.06527, 36.89874], [-3.06972, 36.89964], [-3.06897, 36.91565], [-3.07193, 36.91929], [-3.06629, 36.91242], [-3.05719, 36.91154], [-3.04362, 36.92114], [-3.03132, 36.92458], [-3.03138, 36.9324], [-3.02839, 36.93409], [-3.03221, 36.94229], [-3.02934, 36.94753], [-3.02219, 36.95408], [-3.01418, 36.95637], [-2.9905, 36.95818], [-2.98477, 36.96443], [-2.98501, 36.97191], [-2.97842, 36.97385], [-2.97621, 36.97812], [-2.98251, 37.00597], [-2.9891, 37.0073], [-2.99333, 37.01347], [-2.99894, 37.01222], [-2.99907, 37.02133], [-3.0055, 37.02294], [-3.00598, 37.03459], [-3.01623, 37.05221], [-3.01763, 37.07008], [-3.02396, 37.08457], [-3.02198, 37.09891], [-3.02958, 37.11325], [-3.02639, 37.11657], [-3.01501, 37.11328], [-3.00026, 37.09498], [-2.98114, 37.09297], [-2.96974, 37.09657], [-2.94896, 37.09655], [-2.94833, 37.10615], [-2.94288, 37.11177], [-2.94699, 37.12221], [-2.94173, 37.12465], [-2.9409, 37.13066], [-2.93058, 37.1398], [-2.92915, 37.15657], [-2.9147, 37.1585], [-2.91101, 37.1635], [-2.8953, 37.16705], [-2.88881, 37.18207], [-2.88099, 37.1871], [-2.88027, 37.20395], [-2.87283, 37.21989], [-2.87496, 37.23146], [-2.86652, 37.24305], [-2.86878, 37.2462], [-2.85905, 37.25051], [-2.85566, 37.26861], [-2.85116, 37.27607], [-2.84542, 37.27907], [-2.82005, 37.27816], [-2.8149, 37.27087], [-2.79499, 37.26341], [-2.77896, 37.26263], [-2.77896, 37.25696], [-2.77485, 37.25354], [-2.77979, 37.25107], [-2.75903, 37.22671], [-2.73999, 37.22876], [-2.73302, 37.23732], [-2.72532, 37.23114], [-2.71853, 37.2338], [-2.70986, 37.22543], [-2.69416, 37.22076], [-2.69273, 37.21723], [-2.66911, 37.2172], [-2.66461, 37.21183], [-2.66012, 37.21199], [-2.65763, 37.22892], [-2.66379, 37.23276], [-2.66751, 37.24952], [-2.66171, 37.26668], [-2.66565, 37.28533], [-2.66303, 37.29614], [-2.65087, 37.31233], [-2.65459, 37.31763], [-2.65048, 37.32586], [-2.6546, 37.34061], [-2.63729, 37.34333], [-2.63509, 37.36472], [-2.64319, 37.37594], [-2.6418, 37.3875], [-2.63562, 37.39421], [-2.61506, 37.40569], [-2.59679, 37.42102], [-2.57727, 37.42903], [-2.56845, 37.44639], [-2.53505, 37.46204], [-2.51415, 37.47953], [-2.50309, 37.48351], [-2.4741, 37.48347], [-2.45752, 37.49083], [-2.46197, 37.49869], [-2.46016, 37.50755], [-2.45632, 37.50943], [-2.43428, 37.50948], [-2.42378, 37.51288], [-2.41604, 37.51598], [-2.4117, 37.52494], [-2.4072, 37.52446], [-2.40295, 37.51556], [-2.39722, 37.51338], [-2.3944, 37.51762], [-2.38115, 37.52292], [-2.36552, 37.51987], [-2.35851, 37.52229], [-2.36044, 37.5375], [-2.35573, 37.54699], [-2.3743, 37.55735], [-2.36746, 37.56305], [-2.36789, 37.57222], [-2.37493, 37.57783], [-2.36981, 37.58101], [-2.3679, 37.59158], [-2.37598, 37.61226], [-2.38879, 37.61801], [-2.39127, 37.63248], [-2.37388, 37.62921], [-2.35957, 37.62127], [-2.35647, 37.62537], [-2.34543, 37.62922], [-2.34043, 37.62342], [-2.3167, 37.62184], [-2.30894, 37.63343], [-2.31996, 37.64809], [-2.31951, 37.65963], [-2.32547, 37.67075], [-2.32566, 37.68154], [-2.32211, 37.697], [-2.31327, 37.71137], [-2.30659, 37.71021], [-2.30795, 37.71671], [-2.30502, 37.71914], [-2.30751, 37.72327], [-2.29472, 37.74817], [-2.28707, 37.7514], [-2.27678, 37.77622], [-2.29127, 37.78919], [-2.30177, 37.80828], [-2.29356, 37.82812], [-2.28938, 37.83148], [-2.29384, 37.84156], [-2.29637, 37.86546], [-2.29494, 37.87632], [-2.28851, 37.88514], [-2.26538, 37.88095], [-2.25078, 37.89718], [-2.20779, 37.91625], [-2.18492, 37.90376], [-2.17215, 37.88865], [-2.16481, 37.89266], [-2.15615, 37.89212], [-2.15069, 37.89838], [-2.12489, 37.90028], [-2.10955, 37.88977], [-2.10821, 37.88099], [-2.09727, 37.8769], [-2.05709, 37.88085], [-2.05058, 37.87956], [-2.04523, 37.87397], [-2.02156, 37.8682], [-2.00487, 37.88001], [-2.00341, 37.87651], [-1.99892, 37.8758], [-1.99366, 37.87982], [-1.98797, 37.87354], [-1.98269, 37.87388], [-1.97427, 37.86722], [-1.97739, 37.86033], [-1.98856, 37.85334], [-1.99528, 37.84139], [-1.99951, 37.82314], [-1.99648, 37.81901], [-2.00884, 37.77495], [-1.99583, 37.72805], [-2.00765, 37.71979], [-2.01265, 37.7006], [-2.00977, 37.68679], [-2.01192, 37.67254], [-1.99277, 37.6433], [-1.98747, 37.64519], [-1.98307, 37.63894], [-1.97681, 37.61873], [-1.97005, 37.61414], [-1.96514, 37.60504], [-1.95528, 37.60086], [-1.95378, 37.58795], [-1.87122, 37.48944], [-1.85889, 37.47991], [-1.84509, 37.45502], [-1.80856, 37.43353], [-1.81176, 37.45156], [-1.7963, 37.45219], [-1.77984, 37.44698], [-1.73708, 37.44263], [-1.70502, 37.42102], [-1.66597, 37.40086], [-1.63075, 37.37361], [-1.63663, 37.37529], [-1.64458, 37.37137], [-1.65345, 37.35419], [-1.66561, 37.35806], [-1.67708, 37.35285], [-1.68901, 37.33924], [-1.7083, 37.30411], [-1.74475, 37.2753], [-1.74998, 37.26669], [-1.7589, 37.26299], [-1.76216, 37.25845], [-1.76137, 37.25728], [-1.76333, 37.25599], [-1.76354, 37.25474], [-1.76318, 37.2546], [-1.76485, 37.25388], [-1.76709, 37.25023], [-1.76885, 37.25023], [-1.77178, 37.24537], [-1.7718, 37.24654], [-1.77217, 37.24657], [-1.77208, 37.24592], [-1.77323, 37.2457], [-1.77423, 37.24438], [-1.77408, 37.24006], [-1.78502, 37.23418], [-1.79242, 37.23434], [-1.79756, 37.22961], [-1.80785, 37.2106], [-1.81633, 37.1869], [-1.81535, 37.18604], [-1.81502, 37.18534], [-1.81641, 37.17883], [-1.81538, 37.18586], [-1.81997, 37.1833], [-1.8207, 37.17257], [-1.82357, 37.17054], [-1.82311, 37.15217], [-1.83314, 37.11925], [-1.84204, 37.1122], [-1.84857, 37.09739], [-1.84948, 37.06835], [-1.86195, 37.05243], [-1.86552, 37.04192], [-1.87545, 37.03633], [-1.87891, 37.02483], [-1.87768, 37.01449], [-1.8878, 37.00788], [-1.88975, 36.99558], [-1.89523, 36.99457], [-1.89731, 36.99248], [-1.89573, 36.99123], [-1.89738, 36.98843], [-1.89802, 36.99182], [-1.90076, 36.98776], [-1.90132, 36.97977], [-1.89657, 36.97868], [-1.89405, 36.97543], [-1.89387, 36.97381], [-1.89719, 36.97857], [-1.90085, 36.9786], [-1.90054, 36.96974], [-1.89584, 36.96769], [-1.89463, 36.96388], [-1.89628, 36.96735], [-1.89988, 36.96709], [-1.89547, 36.94868], [-1.90272, 36.94455], [-1.90374, 36.93737], [-1.91586, 36.93404], [-1.93183, 36.93918], [-1.94053, 36.93652], [-1.9544, 36.92361], [-1.95293, 36.91996], [-1.95857, 36.91486], [-1.95902, 36.90917], [-1.96512, 36.9064], [-1.9673, 36.89886], [-1.97299, 36.89836], [-1.98033, 36.90297], [-1.99208, 36.89373], [-1.99495, 36.88561], [-2.00388, 36.88088], [-2.00111, 36.8702], [-2.0058, 36.86073], [-1.99865, 36.85658], [-1.99994, 36.85206], [-1.99543, 36.85038], [-2.00087, 36.8461], [-1.99961, 36.84002], [-2.00903, 36.83405], [-2.02536, 36.83488], [-2.02519, 36.8312], [-2.03406, 36.82896], [-2.04082, 36.82326], [-2.04108, 36.81893], [-2.04818, 36.81777], [-2.04962, 36.81282], [-2.05523, 36.81342], [-2.06002, 36.80972], [-2.06358, 36.78136], [-2.06028, 36.77782], [-2.07064, 36.77504], [-2.07284, 36.77], [-2.08327, 36.76496], [-2.1062, 36.76265], [-2.10977, 36.75578], [-2.1067, 36.75208], [-2.12101, 36.74722], [-2.12065, 36.73971], [-2.1147, 36.73898], [-2.12148, 36.73336], [-2.13756, 36.729], [-2.15175, 36.73117], [-2.16386, 36.72669], [-2.16783, 36.722], [-2.17925, 36.72418], [-2.18406, 36.71928], [-2.18723, 36.72181], [-2.19341, 36.7211], [-2.24117, 36.77596], [-2.27173, 36.80478], [-2.2934, 36.82145], [-2.33048, 36.83692], [-2.37067, 36.84051], [-2.403, 36.82764], [-2.42655, 36.81074], [-2.45678, 36.83005], [-2.4672, 36.83027], [-2.46512, 36.8334], [-2.47512, 36.83703], [-2.47906, 36.83568], [-2.46412, 36.82585], [-2.47959, 36.83478], [-2.48504, 36.83189], [-2.48034, 36.8348], [-2.48195, 36.83558], [-2.48666, 36.83296], [-2.48488, 36.83073], [-2.50258, 36.82462], [-2.52415, 36.82474], [-2.53319, 36.81874], [-2.55473, 36.81689]]], [[[-2.56648, 36.81168], [-2.56722, 36.81098], [-2.56727, 36.81101], [-2.56648, 36.81168]]], [[[-2.19116, 36.72023], [-2.19104, 36.72004], [-2.19129, 36.72005], [-2.19116, 36.72023]]], [[[-2.19098, 36.7207], [-2.19071, 36.72032], [-2.19088, 36.72028], [-2.19098, 36.7207]]], [[[-2.19404, 36.72217], [-2.19357, 36.72223], [-2.19382, 36.72179], [-2.19404, 36.72217]]], [[[-2.17494, 36.72232], [-2.17496, 36.72267], [-2.17476, 36.72237], [-2.17494, 36.72232]]], [[[-2.04904, 36.81267], [-2.04958, 36.81223], [-2.04948, 36.81257], [-2.04904, 36.81267]]], [[[-2.00279, 36.83677], [-2.00248, 36.83639], [-2.00289, 36.83653], [-2.00279, 36.83677]]], [[[-1.88601, 36.99227], [-1.88542, 36.99352], [-1.885, 36.99213], [-1.88601, 36.99227]]], [[[-1.82036, 37.17517], [-1.82013, 37.1757], [-1.82033, 37.17478], [-1.82036, 37.17517]]], [[[-1.81986, 37.17813], [-1.81969, 37.17789], [-1.81978, 37.17766], [-1.81986, 37.17813]]], [[[-1.77436, 37.24331], [-1.77437, 37.24339], [-1.7743, 37.24339], [-1.77436, 37.24331]]], [[[-1.77396, 37.24365], [-1.7737, 37.24376], [-1.77376, 37.24358], [-1.77396, 37.24365]]], [[[-1.77387, 37.24386], [-1.77406, 37.24383], [-1.77392, 37.24393], [-1.77387, 37.24386]]], [[[-1.77354, 37.24438], [-1.77327, 37.24434], [-1.77358, 37.24433], [-1.77354, 37.24438]]], [[[-1.77331, 37.24465], [-1.77315, 37.24453], [-1.7735, 37.24453], [-1.77331, 37.24465]]], [[[-1.77288, 37.2448], [-1.77299, 37.24496], [-1.77275, 37.24503], [-1.77288, 37.2448]]], [[[-1.7735, 37.24529], [-1.7732, 37.24511], [-1.77337, 37.24507], [-1.7735, 37.24529]]], [[[-1.77305, 37.24531], [-1.77304, 37.2452], [-1.77314, 37.24526], [-1.77305, 37.24531]]], [[[-1.77332, 37.2454], [-1.77334, 37.2455], [-1.77324, 37.24544], [-1.77332, 37.2454]]], [[[-1.76962, 37.24761], [-1.76953, 37.24772], [-1.76951, 37.2476], [-1.76962, 37.24761]]], [[[-1.76966, 37.24847], [-1.76976, 37.2485], [-1.76969, 37.24856], [-1.76966, 37.24847]]], [[[-1.76933, 37.24872], [-1.76944, 37.24853], [-1.76952, 37.24864], [-1.76933, 37.24872]]], [[[-1.76902, 37.24937], [-1.76891, 37.24934], [-1.76913, 37.24922], [-1.76902, 37.24937]]], [[[-1.76572, 37.25155], [-1.76592, 37.25173], [-1.7657, 37.25172], [-1.76572, 37.25155]]], [[[-1.76517, 37.25189], [-1.76536, 37.2518], [-1.7654, 37.25189], [-1.76517, 37.25189]]], [[[-1.76569, 37.25196], [-1.76584, 37.25191], [-1.76588, 37.25193], [-1.76569, 37.25196]]], [[[-1.76523, 37.25224], [-1.76517, 37.25232], [-1.76512, 37.25227], [-1.76523, 37.25224]]], [[[-1.76507, 37.25276], [-1.76515, 37.25279], [-1.76497, 37.25282], [-1.76507, 37.25276]]], [[[-1.76449, 37.25325], [-1.76461, 37.25329], [-1.7645, 37.25332], [-1.76449, 37.25325]]], [[[-1.76389, 37.25376], [-1.76375, 37.25393], [-1.76368, 37.25396], [-1.76389, 37.25376]]], [[[-1.7638, 37.25404], [-1.76399, 37.25405], [-1.76363, 37.25422], [-1.7638, 37.25404]]], [[[-1.76296, 37.2548], [-1.7631, 37.2547], [-1.76313, 37.25474], [-1.76296, 37.2548]]], [[[-1.76311, 37.25485], [-1.7632, 37.25488], [-1.76314, 37.25494], [-1.76311, 37.25485]]], [[[-1.76137, 37.25697], [-1.76135, 37.25709], [-1.7613, 37.25704], [-1.76137, 37.25697]]], [[[-1.75072, 37.26623], [-1.75072, 37.26638], [-1.75058, 37.2663], [-1.75072, 37.26623]]], [[[-1.74569, 37.27143], [-1.74557, 37.27154], [-1.74551, 37.27153], [-1.74569, 37.27143]]], [[[-1.74455, 37.27242], [-1.74467, 37.27218], [-1.74472, 37.2722], [-1.74455, 37.27242]]], [[[-1.7414, 37.27568], [-1.74149, 37.27553], [-1.74152, 37.27568], [-1.7414, 37.27568]]], [[[-1.74161, 37.27587], [-1.74151, 37.27584], [-1.74162, 37.2758], [-1.74161, 37.27587]]], [[[-1.73996, 37.27796], [-1.74001, 37.2779], [-1.74001, 37.27796], [-1.73996, 37.27796]]], [[[-1.73927, 37.27832], [-1.73907, 37.27848], [-1.739, 37.27845], [-1.73927, 37.27832]]], [[[-1.73198, 37.28296], [-1.73209, 37.28287], [-1.7322, 37.28289], [-1.73198, 37.28296]]], [[[-1.73226, 37.28307], [-1.73214, 37.28301], [-1.73228, 37.28297], [-1.73226, 37.28307]]], [[[-1.73054, 37.28372], [-1.73052, 37.28363], [-1.73059, 37.28367], [-1.73054, 37.28372]]], [[[-1.72853, 37.2868], [-1.72852, 37.28661], [-1.72858, 37.28679], [-1.72853, 37.2868]]], [[[-1.72545, 37.2887], [-1.72517, 37.28862], [-1.7253, 37.28857], [-1.72545, 37.2887]]], [[[-1.72506, 37.28933], [-1.72519, 37.2894], [-1.72514, 37.28946], [-1.72506, 37.28933]]], [[[-1.72404, 37.28982], [-1.72398, 37.28996], [-1.72393, 37.28984], [-1.72404, 37.28982]]], [[[-1.72376, 37.29014], [-1.72364, 37.29006], [-1.72378, 37.29005], [-1.72376, 37.29014]]], [[[-1.72376, 37.29031], [-1.72407, 37.29029], [-1.72384, 37.29047], [-1.72376, 37.29031]]], [[[-1.72341, 37.29052], [-1.7235, 37.29061], [-1.7234, 37.29067], [-1.72341, 37.29052]]], [[[-1.72322, 37.29059], [-1.72332, 37.29062], [-1.72325, 37.29068], [-1.72322, 37.29059]]], [[[-1.72315, 37.29085], [-1.7233, 37.29093], [-1.72317, 37.291], [-1.72315, 37.29085]]], [[[-1.72263, 37.29164], [-1.72249, 37.29174], [-1.72243, 37.2917], [-1.72263, 37.29164]]], [[[-1.7206, 37.29573], [-1.72067, 37.2956], [-1.72081, 37.2957], [-1.7206, 37.29573]]], [[[-1.71934, 37.29623], [-1.71933, 37.29613], [-1.7194, 37.29616], [-1.71934, 37.29623]]], [[[-1.71905, 37.29634], [-1.7193, 37.29632], [-1.71906, 37.29642], [-1.71905, 37.29634]]], [[[-1.71955, 37.29631], [-1.71943, 37.29639], [-1.7194, 37.29638], [-1.71955, 37.29631]]], [[[-1.71853, 37.2965], [-1.71831, 37.2967], [-1.71821, 37.2966], [-1.71853, 37.2965]]], [[[-1.71779, 37.2971], [-1.71791, 37.29716], [-1.71779, 37.29716], [-1.71779, 37.2971]]], [[[-1.71246, 37.29997], [-1.71275, 37.30001], [-1.71249, 37.30006], [-1.71246, 37.29997]]], [[[-1.71327, 37.29991], [-1.71339, 37.29993], [-1.71327, 37.29996], [-1.71327, 37.29991]]], [[[-1.70917, 37.30371], [-1.70905, 37.30355], [-1.70924, 37.30366], [-1.70917, 37.30371]]], [[[-1.70765, 37.30428], [-1.70754, 37.30421], [-1.70764, 37.3042], [-1.70765, 37.30428]]], [[[-1.70735, 37.30464], [-1.70744, 37.30465], [-1.7074, 37.30472], [-1.70735, 37.30464]]], [[[-1.70435, 37.31073], [-1.70441, 37.31064], [-1.70441, 37.31073], [-1.70435, 37.31073]]], [[[-1.70431, 37.31096], [-1.70412, 37.31106], [-1.70431, 37.31086], [-1.70431, 37.31096]]], [[[-1.70395, 37.31119], [-1.70411, 37.31131], [-1.70406, 37.31137], [-1.70395, 37.31119]]], [[[-1.70321, 37.31225], [-1.70316, 37.31234], [-1.70311, 37.3123], [-1.70321, 37.31225]]], [[[-1.70327, 37.31231], [-1.70336, 37.31235], [-1.70329, 37.31237], [-1.70327, 37.31231]]], [[[-1.70128, 37.31518], [-1.70143, 37.31518], [-1.70129, 37.3152], [-1.70128, 37.31518]]], [[[-1.70008, 37.31748], [-1.69989, 37.31718], [-1.7002, 37.3173], [-1.70008, 37.31748]]], [[[-1.6996, 37.3173], [-1.69965, 37.31752], [-1.69951, 37.31736], [-1.6996, 37.3173]]], [[[-1.69975, 37.31789], [-1.69967, 37.31781], [-1.69978, 37.31779], [-1.69975, 37.31789]]], [[[-1.69959, 37.31888], [-1.69973, 37.31892], [-1.69959, 37.31893], [-1.69959, 37.31888]]], [[[-1.69888, 37.3193], [-1.6989, 37.31942], [-1.69879, 37.31939], [-1.69888, 37.3193]]], [[[-1.69964, 37.3195], [-1.69951, 37.31949], [-1.69955, 37.31944], [-1.69964, 37.3195]]], [[[-1.69864, 37.31994], [-1.69854, 37.31993], [-1.69865, 37.31992], [-1.69864, 37.31994]]], [[[-1.69912, 37.32003], [-1.69889, 37.3202], [-1.69886, 37.32012], [-1.69912, 37.32003]]], [[[-1.69866, 37.32021], [-1.69839, 37.32035], [-1.69835, 37.32029], [-1.69866, 37.32021]]], [[[-1.69877, 37.32041], [-1.69887, 37.32024], [-1.69893, 37.32042], [-1.69877, 37.32041]]], [[[-1.69903, 37.32077], [-1.69898, 37.32069], [-1.69905, 37.3207], [-1.69903, 37.32077]]], [[[-1.69869, 37.32081], [-1.69858, 37.32076], [-1.69867, 37.32074], [-1.69869, 37.32081]]], [[[-1.6983, 37.32187], [-1.69839, 37.32163], [-1.69844, 37.32173], [-1.6983, 37.32187]]], [[[-1.69787, 37.32203], [-1.69796, 37.32207], [-1.69784, 37.32213], [-1.69787, 37.32203]]], [[[-1.69758, 37.32241], [-1.6976, 37.3219], [-1.69783, 37.32182], [-1.69758, 37.32241]]], [[[-1.69741, 37.32284], [-1.69746, 37.32275], [-1.69747, 37.32285], [-1.69741, 37.32284]]], [[[-1.69719, 37.32283], [-1.69715, 37.32304], [-1.69706, 37.32286], [-1.69719, 37.32283]]], [[[-1.69675, 37.32499], [-1.69662, 37.32503], [-1.69667, 37.32493], [-1.69675, 37.32499]]], [[[-1.65168, 37.34683], [-1.65216, 37.3478], [-1.65137, 37.34735], [-1.65168, 37.34683]]], [[[-1.64905, 37.35966], [-1.64784, 37.35973], [-1.64902, 37.35925], [-1.64905, 37.35966]]]]}}, {"type": "Feature", "properties": {"province": "Cádiz"}, "geometry": {"type": "MultiPolygon", "coordinates": [[[[-6.00662, 36.18152], [-6.0057, 36.18133], [-6.00666, 36.18143], [-6.00662, 36.18152]]], [[[-6.00849, 36.18157], [-6.00847, 36.18138], [-6.00925, 36.18149], [-6.00849, 36.18157]]], [[[-5.84789, 36.13359], [-5.87606, 36.15906], [-5.91639, 36.18524], [-5.92369, 36.18577], [-5.92765, 36.18229], [-5.93034, 36.18272], [-5.92672, 36.18604], [-5.93482, 36.18609], [-5.93521, 36.18341], [-5.93259, 36.18448], [-5.93254, 36.18206], [-5.9256, 36.17931], [-5.94472, 36.18659], [-5.98079, 36.17657], [-6.01979, 36.18617], [-6.02698, 36.1861], [-6.03447, 36.18117], [-6.04037, 36.19235], [-6.05367, 36.20333], [-6.08007, 36.24469], [-6.08865, 36.26516], [-6.10276, 36.28411], [-6.1161, 36.29455], [-6.13181, 36.29672], [-6.13565, 36.29442], [-6.13757, 36.297], [-6.13861, 36.29556], [-6.1343, 36.29282], [-6.13675, 36.29271], [-6.15109, 36.30652], [-6.16812, 36.34623], [-6.18221, 36.36857], [-6.21875, 36.39255], [-6.21903, 36.40318], [-6.23401, 36.43559], [-6.24784, 36.44887], [-6.24648, 36.44152], [-6.24875, 36.44416], [-6.25931, 36.47309], [-6.28847, 36.51787], [-6.28883, 36.52342], [-6.29691, 36.52881], [-6.30233, 36.52753], [-6.3096, 36.5286], [-6.30628, 36.5295], [-6.30867, 36.53322], [-6.30505, 36.53674], [-6.2905, 36.5377], [-6.28729, 36.54284], [-6.27936, 36.543], [-6.29229, 36.53287], [-6.28995, 36.53076], [-6.28422, 36.53468], [-6.28128, 36.53368], [-6.28717, 36.53086], [-6.28195, 36.53284], [-6.2811, 36.5289], [-6.27534, 36.53324], [-6.27684, 36.54074], [-6.27538, 36.53507], [-6.26863, 36.532], [-6.27479, 36.53226], [-6.27286, 36.53004], [-6.27826, 36.5295], [-6.27653, 36.52684], [-6.28193, 36.52747], [-6.27515, 36.52473], [-6.26984, 36.50858], [-6.26143, 36.50903], [-6.26001, 36.50769], [-6.26318, 36.50281], [-6.26033, 36.49968], [-6.25502, 36.50138], [-6.2571, 36.50705], [-6.25643, 36.50782], [-6.25435, 36.50058], [-6.26243, 36.49601], [-6.26213, 36.49151], [-6.2667, 36.48933], [-6.2576, 36.47311], [-6.2472, 36.46541], [-6.22983, 36.4626], [-6.22759, 36.46657], [-6.21966, 36.46627], [-6.21243, 36.47016], [-6.21319, 36.48123], [-6.2069, 36.48019], [-6.20113, 36.4854], [-6.19367, 36.48674], [-6.19073, 36.49243], [-6.1921, 36.49906], [-6.17143, 36.51192], [-6.17324, 36.52141], [-6.18455, 36.52518], [-6.19125, 36.52387], [-6.20053, 36.52872], [-6.19986, 36.52377], [-6.19636, 36.5221], [-6.20787, 36.50958], [-6.21888, 36.50997], [-6.2319, 36.50372], [-6.24206, 36.50619], [-6.24703, 36.51103], [-6.24511, 36.51284], [-6.24799, 36.51159], [-6.25084, 36.51562], [-6.24361, 36.51844], [-6.25566, 36.51995], [-6.25779, 36.52516], [-6.255, 36.52554], [-6.25578, 36.5289], [-6.25909, 36.5284], [-6.25911, 36.52855], [-6.25614, 36.52971], [-6.24102, 36.52839], [-6.22912, 36.52507], [-6.2329, 36.52892], [-6.22379, 36.56722], [-6.22952, 36.57874], [-6.23214, 36.58087], [-6.2393, 36.57416], [-6.23574, 36.57774], [-6.24232, 36.57888], [-6.2377, 36.58333], [-6.24284, 36.58551], [-6.24991, 36.58356], [-6.24884, 36.58092], [-6.25351, 36.57822], [-6.25256, 36.58147], [-6.2578, 36.58133], [-6.25409, 36.57706], [-6.26594, 36.57986], [-6.27981, 36.60372], [-6.30157, 36.61833], [-6.30888, 36.61594], [-6.31576, 36.62284], [-6.32202, 36.61934], [-6.32442, 36.6217], [-6.32028, 36.623], [-6.33042, 36.62435], [-6.3333, 36.62237], [-6.33032, 36.61958], [-6.33343, 36.6223], [-6.33503, 36.62085], [-6.32613, 36.61039], [-6.33682, 36.62097], [-6.33557, 36.62469], [-6.34413, 36.62599], [-6.35444, 36.62159], [-6.35545, 36.61925], [-6.35239, 36.61827], [-6.35326, 36.61813], [-6.35134, 36.61674], [-6.35152, 36.61512], [-6.35357, 36.61825], [-6.35265, 36.61536], [-6.35641, 36.61537], [-6.35216, 36.61371], [-6.35824, 36.61529], [-6.38661, 36.62798], [-6.39386, 36.63352], [-6.39332, 36.64468], [-6.39845, 36.65837], [-6.4048, 36.66276], [-6.43165, 36.70473], [-6.43994, 36.72024], [-6.44025, 36.73063], [-6.44376, 36.73629], [-6.42848, 36.74948], [-6.43175, 36.74583], [-6.42981, 36.74419], [-6.42854, 36.74822], [-6.42605, 36.74412], [-6.42016, 36.74546], [-6.40959, 36.76105], [-6.39905, 36.76107], [-6.3895, 36.7659], [-6.36339, 36.78297], [-6.36519, 36.78972], [-6.34103, 36.79964], [-6.34141, 36.80917], [-6.3514, 36.82322], [-6.35575, 36.83724], [-6.35535, 36.84904], [-6.343, 36.89496], [-6.33698, 36.89909], [-6.27529, 36.91093], [-6.26385, 36.89777], [-6.25378, 36.8928], [-6.245, 36.89264], [-6.23099, 36.89811], [-6.20868, 36.89343], [-6.18716, 36.89359], [-6.15615, 36.88565], [-6.12199, 36.86379], [-6.10445, 36.85726], [-5.97312, 36.84419], [-5.95285, 36.85313], [-5.92535, 36.85307], [-5.89105, 36.84219], [-5.88883, 36.84677], [-5.89358, 36.85158], [-5.87652, 36.89471], [-5.86672, 36.89518], [-5.84551, 36.91521], [-5.82889, 36.91579], [-5.80393, 36.92552], [-5.763, 36.92572], [-5.74402, 36.92294], [-5.73631, 36.91822], [-5.72713, 36.9215], [-5.71377, 36.92039], [-5.7032, 36.9256], [-5.69618, 36.93528], [-5.69461, 36.95678], [-5.66757, 36.97599], [-5.64967, 36.95432], [-5.63283, 36.9506], [-5.62614, 36.95444], [-5.61809, 36.94016], [-5.61025, 36.94142], [-5.60628, 36.95079], [-5.59492, 36.94467], [-5.58711, 36.94701], [-5.5834, 36.91509], [-5.53378, 36.89354], [-5.5506, 36.92052], [-5.54612, 36.93018], [-5.53577, 36.92998], [-5.53276, 36.93585], [-5.52479, 36.93733], [-5.51389, 36.95654], [-5.50234, 36.95832], [-5.49343, 36.97092], [-5.48143, 36.97237], [-5.46973, 36.98395], [-5.47304, 36.99523], [-5.4953, 37.01147], [-5.51099, 37.0336], [-5.49688, 37.0397], [-5.47312, 37.04294], [-5.46269, 37.04123], [-5.44791, 37.05022], [-5.43369, 37.05245], [-5.42774, 37.04457], [-5.42011, 37.01321], [-5.43524, 36.99112], [-5.44247, 36.98986], [-5.45604, 36.97815], [-5.45958, 36.97851], [-5.46029, 36.9753], [-5.45717, 36.97414], [-5.45456, 36.9612], [-5.44592, 36.95667], [-5.44627, 36.94644], [-5.44126, 36.94396], [-5.43895, 36.93529], [-5.41366, 36.93979], [-5.4168, 36.94535], [-5.41336, 36.95402], [-5.39239, 36.97328], [-5.3653, 36.98566], [-5.36076, 36.98516], [-5.35968, 36.99249], [-5.34514, 36.99754], [-5.3375, 37.01174], [-5.3021, 37.03736], [-5.30022, 37.01374], [-5.27403, 36.99057], [-5.26828, 36.97843], [-5.26239, 36.97578], [-5.25673, 36.96404], [-5.23453, 36.94105], [-5.22522, 36.9423], [-5.22005, 36.9507], [-5.20604, 36.96264], [-5.19166, 36.96641], [-5.18981, 36.96973], [-5.16264, 36.98142], [-5.1584, 36.98932], [-5.14238, 37.00386], [-5.12331, 36.9906], [-5.11514, 36.98896], [-5.11074, 36.98395], [-5.11233, 36.97629], [-5.09906, 36.97234], [-5.09558, 36.9683], [-5.11011, 36.95933], [-5.10556, 36.95484], [-5.09984, 36.93259], [-5.09187, 36.92062], [-5.09315, 36.91195], [-5.08679, 36.90501], [-5.10565, 36.89779], [-5.10275, 36.89136], [-5.11103, 36.8882], [-5.11341, 36.87356], [-5.11777, 36.87091], [-5.12183, 36.85789], [-5.13478, 36.83854], [-5.17065, 36.82438], [-5.17806, 36.82953], [-5.18696, 36.82901], [-5.19988, 36.83753], [-5.22185, 36.84249], [-5.22513, 36.85633], [-5.23173, 36.86154], [-5.2418, 36.86171], [-5.26589, 36.87543], [-5.2693, 36.884], [-5.30158, 36.86964], [-5.30629, 36.85759], [-5.31543, 36.85545], [-5.33251, 36.8386], [-5.34071, 36.81942], [-5.33536, 36.81729], [-5.32654, 36.80527], [-5.31982, 36.78673], [-5.29093, 36.77517], [-5.29523, 36.76365], [-5.30762, 36.75101], [-5.31214, 36.73501], [-5.32463, 36.72401], [-5.32313, 36.71873], [-5.32762, 36.69489], [-5.32159, 36.69444], [-5.31871, 36.69048], [-5.3304, 36.67932], [-5.32403, 36.67334], [-5.33382, 36.67239], [-5.34335, 36.65992], [-5.38072, 36.63178], [-5.40532, 36.62712], [-5.41277, 36.62138], [-5.43386, 36.6182], [-5.4385, 36.61417], [-5.45554, 36.6197], [-5.46082, 36.58879], [-5.47697, 36.57408], [-5.48955, 36.57046], [-5.50206, 36.54761], [-5.51277, 36.54239], [-5.52333, 36.53112], [-5.53707, 36.52716], [-5.54164, 36.53767], [-5.56704, 36.54245], [-5.57457, 36.54841], [-5.59512, 36.55091], [-5.60417, 36.54892], [-5.61178, 36.5416], [-5.60625, 36.52527], [-5.60792, 36.51203], [-5.59847, 36.50813], [-5.58299, 36.51369], [-5.57216, 36.51265], [-5.5598, 36.50372], [-5.53473, 36.50346], [-5.52303, 36.49845], [-5.5148, 36.50139], [-5.51384, 36.5107], [-5.49142, 36.53722], [-5.47372, 36.53715], [-5.46551, 36.52871], [-5.46215, 36.53643], [-5.45651, 36.53847], [-5.4289, 36.53359], [-5.42515, 36.52492], [-5.4129, 36.52034], [-5.40984, 36.49655], [-5.40414, 36.49462], [-5.39555, 36.46958], [-5.36066, 36.44002], [-5.35545, 36.4338], [-5.35805, 36.43226], [-5.35728, 36.42384], [-5.34715, 36.41865], [-5.33497, 36.39487], [-5.33512, 36.37052], [-5.32131, 36.3465], [-5.31516, 36.34334], [-5.323, 36.33217], [-5.32008, 36.32507], [-5.29131, 36.33679], [-5.27783, 36.33712], [-5.26785, 36.32418], [-5.2595, 36.32235], [-5.25492, 36.31651], [-5.25235, 36.31122], [-5.26931, 36.29861], [-5.26971, 36.28586], [-5.26976, 36.29023], [-5.27287, 36.28937], [-5.27336, 36.29184], [-5.27506, 36.28932], [-5.2739, 36.292], [-5.27841, 36.28716], [-5.28312, 36.28841], [-5.28034, 36.28598], [-5.27567, 36.28874], [-5.2717, 36.2889], [-5.27064, 36.28814], [-5.27993, 36.28029], [-5.29622, 36.24601], [-5.30565, 36.24365], [-5.31736, 36.22863], [-5.33386, 36.1819], [-5.33184, 36.1803], [-5.33173, 36.17895], [-5.33431, 36.18203], [-5.33586, 36.17974], [-5.33298, 36.18005], [-5.33885, 36.15345], [-5.3651, 36.15508], [-5.36754, 36.15706], [-5.36751, 36.15851], [-5.36498, 36.15517], [-5.36034, 36.15516], [-5.3596, 36.15825], [-5.35531, 36.15702], [-5.35637, 36.15884], [-5.35589, 36.15901], [-5.35299, 36.15697], [-5.35508, 36.15976], [-5.35854, 36.15846], [-5.35658, 36.16118], [-5.36129, 36.15913], [-5.3579, 36.16083], [-5.35897, 36.16356], [-5.37051, 36.16941], [-5.37313, 36.16456], [-5.37654, 36.16528], [-5.38218, 36.16972], [-5.37709, 36.17056], [-5.37729, 36.17217], [-5.38125, 36.17187], [-5.38348, 36.17443], [-5.38042, 36.17674], [-5.38508, 36.17996], [-5.3984, 36.18061], [-5.39803, 36.17716], [-5.39383, 36.17745], [-5.4041, 36.17587], [-5.39818, 36.17718], [-5.39872, 36.18052], [-5.41523, 36.18125], [-5.4162, 36.17446], [-5.41985, 36.17316], [-5.41671, 36.17453], [-5.4194, 36.17882], [-5.41816, 36.1754], [-5.4265, 36.17598], [-5.4429, 36.15851], [-5.44724, 36.13871], [-5.44344, 36.13763], [-5.44283, 36.13111], [-5.44173, 36.14757], [-5.43556, 36.14833], [-5.43619, 36.13489], [-5.43962, 36.13278], [-5.43629, 36.13096], [-5.44246, 36.12778], [-5.43193, 36.12801], [-5.43021, 36.14362], [-5.42823, 36.14765], [-5.43008, 36.13332], [-5.42283, 36.13282], [-5.4223, 36.11992], [-5.43692, 36.11881], [-5.43602, 36.12271], [-5.44287, 36.11836], [-5.43521, 36.11868], [-5.43766, 36.11243], [-5.43116, 36.10604], [-5.44019, 36.10286], [-5.44345, 36.0895], [-5.44097, 36.08611], [-5.42656, 36.08299], [-5.42543, 36.0773], [-5.42976, 36.07074], [-5.44335, 36.0651], [-5.45086, 36.05571], [-5.46459, 36.05028], [-5.4869, 36.05428], [-5.51692, 36.0373], [-5.53878, 36.03166], [-5.57419, 36.01505], [-5.5996, 36.01177], [-5.60106, 36.00797], [-5.60339, 36.00642], [-5.60192, 36.01008], [-5.60562, 36.0103], [-5.60257, 36.00848], [-5.6073, 36.00786], [-5.60928, 36.0053], [-5.60619, 36.00351], [-5.61023, 36.00028], [-5.61265, 36.00389], [-5.60839, 36.00718], [-5.6123, 36.01453], [-5.62978, 36.03509], [-5.65025, 36.05202], [-5.67057, 36.05778], [-5.68929, 36.06736], [-5.70873, 36.05895], [-5.72382, 36.06006], [-5.73119, 36.06603], [-5.75015, 36.07079], [-5.77634, 36.08776], [-5.78355, 36.0877], [-5.78856, 36.08072], [-5.79697, 36.07813], [-5.80631, 36.08938], [-5.81317, 36.08881], [-5.81839, 36.10081], [-5.82575, 36.10229], [-5.84789, 36.13359]]], [[[-6.21565, 36.3839], [-6.2148, 36.38321], [-6.2163, 36.38232], [-6.21565, 36.3839]]], [[[-6.21959, 36.38307], [-6.22, 36.3854], [-6.22064, 36.38686], [-6.21937, 36.38545], [-6.21959, 36.38307]]], [[[-6.22534, 36.39617], [-6.2206, 36.37887], [-6.22424, 36.38996], [-6.22534, 36.39617]]], [[[-6.22091, 36.38773], [-6.22159, 36.38836], [-6.22132, 36.38871], [-6.22091, 36.38773]]], [[[-6.31728, 36.52709], [-6.31658, 36.52908], [-6.31232, 36.52782], [-6.31728, 36.52709]]], [[[-6.47194, 36.73654], [-6.46831, 36.73707], [-6.4685, 36.73225], [-6.47194, 36.73654]]], [[[-6.45732, 36.73556], [-6.45782, 36.73585], [-6.45723, 36.73586], [-6.45732, 36.73556]]], [[[-5.4374, 36.06416], [-5.43753, 36.06417], [-5.43733, 36.06423], [-5.4374, 36.06416]]], [[[-5.43729, 36.06439], [-5.4374, 36.06441], [-5.43722, 36.06446], [-5.43729, 36.06439]]], [[[-5.43521, 36.06483], [-5.43428, 36.06521], [-5.43428, 36.06489], [-5.43521, 36.06483]]], [[[-5.4366, 36.0652], [-5.43653, 36.06536], [-5.43646, 36.06517], [-5.4366, 36.0652]]], [[[-5.43621, 36.06565], [-5.4361, 36.0654], [-5.43619, 36.06546], [-5.43621, 36.06565]]], [[[-5.43631, 36.06573], [-5.43636, 36.0655], [-5.43643, 36.06577], [-5.43631, 36.06573]]], [[[-5.42335, 36.07617], [-5.4239, 36.07644], [-5.4239, 36.07654], [-5.42335, 36.07617]]], [[[-5.42366, 36.07716], [-5.42396, 36.07707], [-5.42408, 36.07736], [-5.42366, 36.07716]]], [[[-5.29539, 36.24544], [-5.29428, 36.24599], [-5.29309, 36.2455], [-5.29539, 36.24544]]]]}}, {"type": "Feature", "properties": {"province": "Córdoba"}, "geometry": {"type": "MultiPolygon", "coordinates": [[[[-5.08417, 37.64726], [-5.05356, 37.64182], [-5.04706, 37.63128], [-5.03084, 37.641], [-5.02581, 37.63447], [-5.02978, 37.63205], [-5.02925, 37.62668], [-5.03376, 37.62112], [-5.02508, 37.59499], [-5.01745, 37.59392], [-5.0183, 37.5923], [-5.02644, 37.59451], [-5.03114, 37.61064], [-5.04809, 37.60819], [-5.04017, 37.62574], [-5.08489, 37.64366], [-5.08417, 37.64726]]], [[[-4.94105, 37.62075], [-4.95716, 37.61321], [-4.96015, 37.60876], [-4.96623, 37.61055], [-4.97477, 37.5989], [-4.96918, 37.61237], [-4.96621, 37.61064], [-4.95852, 37.62173], [-4.9544, 37.65254], [-4.97198, 37.67286], [-4.98414, 37.67812], [-4.98777, 37.69042], [-4.99159, 37.69286], [-4.98984, 37.69463], [-4.99779, 37.70069], [-5.00112, 37.70785], [-5.04723, 37.71829], [-5.07297, 37.70769], [-5.07509, 37.70128], [-5.08125, 37.70151], [-5.08936, 37.69508], [-5.08627, 37.68857], [-5.09102, 37.68319], [-5.09137, 37.6773], [-5.08442, 37.67019], [-5.07822, 37.66974], [-5.07757, 37.66503], [-5.07305, 37.66378], [-5.06958, 37.66014], [-5.0827, 37.66083], [-5.09921, 37.6703], [-5.09486, 37.67616], [-5.1087, 37.6995], [-5.11321, 37.70223], [-5.12349, 37.70033], [-5.1298, 37.69866], [-5.11431, 37.69031], [-5.10808, 37.6629], [-5.12007, 37.66751], [-5.13656, 37.66823], [-5.15019, 37.66053], [-5.16087, 37.6725], [-5.17624, 37.68036], [-5.21194, 37.66347], [-5.27379, 37.62549], [-5.29977, 37.62289], [-5.3233, 37.61425], [-5.32292, 37.61149], [-5.34393, 37.59316], [-5.34503, 37.58631], [-5.35866, 37.58453], [-5.35652, 37.593], [-5.35901, 37.60424], [-5.38154, 37.61089], [-5.38206, 37.61463], [-5.39866, 37.62739], [-5.40175, 37.63649], [-5.40754, 37.63841], [-5.40693, 37.64122], [-5.41099, 37.64094], [-5.41005, 37.64495], [-5.41348, 37.64442], [-5.4144, 37.64709], [-5.39826, 37.64962], [-5.3936, 37.65598], [-5.39732, 37.66199], [-5.40509, 37.65841], [-5.40967, 37.65987], [-5.41473, 37.67655], [-5.40824, 37.68958], [-5.39558, 37.69259], [-5.3808, 37.67795], [-5.37205, 37.67784], [-5.37027, 37.6877], [-5.36286, 37.6976], [-5.33863, 37.7063], [-5.33521, 37.70514], [-5.33641, 37.69951], [-5.33106, 37.69348], [-5.31566, 37.69546], [-5.30342, 37.7214], [-5.31236, 37.7523], [-5.31843, 37.75775], [-5.31464, 37.76489], [-5.30985, 37.76594], [-5.30922, 37.77389], [-5.3282, 37.7783], [-5.33017, 37.78511], [-5.34323, 37.78892], [-5.34905, 37.79404], [-5.34738, 37.81189], [-5.34185, 37.82179], [-5.34515, 37.82692], [-5.33947, 37.83105], [-5.346, 37.83563], [-5.34476, 37.84017], [-5.36051, 37.84343], [-5.36816, 37.84964], [-5.38314, 37.85189], [-5.39555, 37.86177], [-5.40605, 37.86258], [-5.41168, 37.87137], [-5.41628, 37.86964], [-5.41512, 37.8753], [-5.41858, 37.87739], [-5.41564, 37.87911], [-5.41673, 37.88444], [-5.42273, 37.8894], [-5.41498, 37.89775], [-5.41469, 37.90408], [-5.41811, 37.90656], [-5.4189, 37.917], [-5.42315, 37.91709], [-5.41782, 37.92023], [-5.42098, 37.92434], [-5.41706, 37.92732], [-5.42492, 37.9259], [-5.42342, 37.93037], [-5.42189, 37.92799], [-5.41884, 37.93068], [-5.41551, 37.94275], [-5.4348, 37.95453], [-5.43589, 37.95791], [-5.4486, 37.96174], [-5.45288, 37.96731], [-5.46924, 37.97014], [-5.47129, 37.97459], [-5.47558, 37.97524], [-5.478, 37.98357], [-5.49356, 37.99867], [-5.48903, 38.02894], [-5.49513, 38.04184], [-5.52371, 38.06593], [-5.52685, 38.07514], [-5.53958, 38.08215], [-5.53878, 38.09381], [-5.55735, 38.10796], [-5.58168, 38.11547], [-5.58098, 38.12801], [-5.58479, 38.13171], [-5.58564, 38.14036], [-5.57399, 38.15066], [-5.5601, 38.14856], [-5.55068, 38.16056], [-5.53967, 38.16069], [-5.53578, 38.16868], [-5.54042, 38.16998], [-5.53999, 38.18099], [-5.54371, 38.18485], [-5.54034, 38.18503], [-5.53674, 38.19187], [-5.53924, 38.19318], [-5.53871, 38.2006], [-5.52923, 38.20187], [-5.52038, 38.20844], [-5.52434, 38.22261], [-5.52214, 38.23225], [-5.52378, 38.2492], [-5.53004, 38.25519], [-5.52596, 38.26412], [-5.53757, 38.27301], [-5.53745, 38.27951], [-5.54111, 38.27804], [-5.5444, 38.28233], [-5.54171, 38.28593], [-5.55257, 38.30349], [-5.55123, 38.31098], [-5.55553, 38.31773], [-5.57565, 38.32911], [-5.56727, 38.35133], [-5.56691, 38.36255], [-5.55925, 38.36688], [-5.56618, 38.36757], [-5.56316, 38.372], [-5.56678, 38.3772], [-5.57999, 38.38108], [-5.58507, 38.38584], [-5.58449, 38.40028], [-5.57279, 38.42759], [-5.54643, 38.44999], [-5.53087, 38.45457], [-5.51972, 38.46329], [-5.51199, 38.46357], [-5.50503, 38.45682], [-5.49493, 38.45906], [-5.49171, 38.46637], [-5.4846, 38.46295], [-5.47952, 38.48425], [-5.469, 38.48459], [-5.45874, 38.494], [-5.45761, 38.49924], [-5.4508, 38.49799], [-5.44482, 38.50492], [-5.43497, 38.50422], [-5.42781, 38.51464], [-5.41896, 38.51253], [-5.41653, 38.52035], [-5.41, 38.52022], [-5.41624, 38.52955], [-5.40343, 38.53628], [-5.40693, 38.5437], [-5.39764, 38.54655], [-5.3891, 38.53919], [-5.38416, 38.53945], [-5.38365, 38.54368], [-5.39175, 38.54913], [-5.39272, 38.55348], [-5.38358, 38.55595], [-5.38981, 38.56217], [-5.38601, 38.56681], [-5.37569, 38.56826], [-5.36949, 38.5783], [-5.37175, 38.58357], [-5.35658, 38.58548], [-5.33573, 38.5785], [-5.32382, 38.58056], [-5.30851, 38.57762], [-5.30592, 38.582], [-5.31023, 38.59358], [-5.30063, 38.59905], [-5.29224, 38.61081], [-5.27831, 38.6126], [-5.26803, 38.62263], [-5.25443, 38.62573], [-5.254, 38.63319], [-5.2447, 38.63233], [-5.24746, 38.63984], [-5.23911, 38.63675], [-5.23563, 38.64303], [-5.22291, 38.64835], [-5.22377, 38.65671], [-5.21954, 38.65603], [-5.21474, 38.64857], [-5.20848, 38.6677], [-5.20416, 38.6661], [-5.19998, 38.65657], [-5.19738, 38.65736], [-5.19688, 38.6673], [-5.19078, 38.66068], [-5.18423, 38.65973], [-5.17907, 38.66573], [-5.18741, 38.67039], [-5.18576, 38.67417], [-5.16801, 38.67732], [-5.16732, 38.68047], [-5.17345, 38.68846], [-5.17538, 38.7003], [-5.18135, 38.70664], [-5.18031, 38.71232], [-5.1845, 38.7197], [-5.17143, 38.71753], [-5.16661, 38.71167], [-5.15276, 38.71633], [-5.14254, 38.7138], [-5.119, 38.71614], [-5.09919, 38.70765], [-5.06829, 38.71756], [-5.06162, 38.72432], [-5.04179, 38.72867], [-5.03274, 38.72537], [-5.0247, 38.72644], [-5.01721, 38.71889], [-5.00803, 38.71523], [-5.00044, 38.70121], [-5.00093, 38.69678], [-5.0046, 38.69509], [-4.94087, 38.68153], [-4.92378, 38.68198], [-4.91877, 38.68609], [-4.91081, 38.6867], [-4.87697, 38.68609], [-4.86888, 38.68093], [-4.87089, 38.67514], [-4.86348, 38.641], [-4.86739, 38.63271], [-4.85962, 38.61439], [-4.8328, 38.60595], [-4.81592, 38.59502], [-4.78825, 38.59657], [-4.7693, 38.58699], [-4.75341, 38.5848], [-4.7386, 38.57639], [-4.72107, 38.57164], [-4.70524, 38.5712], [-4.70475, 38.56421], [-4.69962, 38.56082], [-4.70467, 38.55674], [-4.70312, 38.55306], [-4.68742, 38.54772], [-4.66366, 38.54632], [-4.65589, 38.53842], [-4.63986, 38.53177], [-4.63286, 38.52427], [-4.62196, 38.52345], [-4.61961, 38.50816], [-4.60997, 38.49555], [-4.59594, 38.49059], [-4.59367, 38.48595], [-4.58855, 38.48683], [-4.58707, 38.49314], [-4.57681, 38.49327], [-4.57172, 38.48727], [-4.56456, 38.4903], [-4.5635, 38.48407], [-4.55858, 38.48246], [-4.55873, 38.47695], [-4.53943, 38.48202], [-4.53555, 38.47006], [-4.5244, 38.46292], [-4.51228, 38.46348], [-4.50547, 38.4572], [-4.50145, 38.44635], [-4.49534, 38.44132], [-4.48772, 38.44111], [-4.48267, 38.43292], [-4.47125, 38.42613], [-4.45278, 38.40147], [-4.43523, 38.40233], [-4.4278, 38.39634], [-4.41738, 38.39519], [-4.4062, 38.38297], [-4.39064, 38.38619], [-4.33442, 38.36621], [-4.33219, 38.36119], [-4.32111, 38.36284], [-4.31812, 38.35743], [-4.31052, 38.35792], [-4.30918, 38.35361], [-4.29545, 38.35101], [-4.28707, 38.34253], [-4.27486, 38.34763], [-4.2751, 38.3504], [-4.2717, 38.34622], [-4.26662, 38.34709], [-4.26359, 38.34239], [-4.25673, 38.34293], [-4.25644, 38.33915], [-4.24756, 38.34175], [-4.24509, 38.33876], [-4.2429, 38.3413], [-4.24035, 38.33789], [-4.2378, 38.33993], [-4.23549, 38.33426], [-4.24013, 38.33193], [-4.23841, 38.32628], [-4.23467, 38.32807], [-4.23284, 38.3249], [-4.23818, 38.32297], [-4.23447, 38.31584], [-4.23828, 38.31595], [-4.2379, 38.31301], [-4.23146, 38.31268], [-4.22708, 38.30787], [-4.22832, 38.30042], [-4.21997, 38.29793], [-4.21592, 38.30345], [-4.21021, 38.30066], [-4.21457, 38.2698], [-4.20816, 38.26677], [-4.21526, 38.25518], [-4.21605, 38.24668], [-4.20304, 38.24641], [-4.19676, 38.23965], [-4.19826, 38.23519], [-4.1943, 38.23194], [-4.20197, 38.22044], [-4.20053, 38.2135], [-4.19061, 38.2065], [-4.18698, 38.19508], [-4.16827, 38.18101], [-4.16644, 38.1715], [-4.16856, 38.1653], [-4.16316, 38.15958], [-4.16542, 38.14941], [-4.16093, 38.14517], [-4.16571, 38.14374], [-4.17457, 38.13172], [-4.19458, 38.12809], [-4.19928, 38.12246], [-4.19834, 38.11663], [-4.20308, 38.11363], [-4.20234, 38.10891], [-4.21832, 38.11049], [-4.22123, 38.10349], [-4.21247, 38.09457], [-4.21319, 38.09048], [-4.21792, 38.08838], [-4.22766, 38.09138], [-4.221, 38.08313], [-4.2284, 38.08567], [-4.23365, 38.08359], [-4.22756, 38.07981], [-4.23517, 38.0736], [-4.23628, 38.06279], [-4.24654, 38.06939], [-4.25153, 38.06605], [-4.25156, 38.0482], [-4.23993, 38.05301], [-4.24085, 38.04605], [-4.25051, 38.03924], [-4.26853, 38.04052], [-4.26025, 38.02875], [-4.25942, 38.02241], [-4.28225, 38.02281], [-4.28445, 38.00383], [-4.27766, 38.00019], [-4.26432, 37.97345], [-4.25805, 37.93932], [-4.26239, 37.91508], [-4.26488, 37.91076], [-4.27287, 37.9103], [-4.27095, 37.90546], [-4.27481, 37.90279], [-4.27331, 37.89669], [-4.27992, 37.87651], [-4.2781, 37.85056], [-4.28086, 37.82867], [-4.28608, 37.81457], [-4.2841, 37.81184], [-4.28674, 37.79654], [-4.25903, 37.78869], [-4.22534, 37.7866], [-4.20868, 37.78027], [-4.20714, 37.77019], [-4.21874, 37.76718], [-4.21866, 37.76429], [-4.22556, 37.762], [-4.22942, 37.75536], [-4.24017, 37.72711], [-4.23822, 37.71946], [-4.18273, 37.706], [-4.18007, 37.69902], [-4.16437, 37.68151], [-4.18765, 37.67003], [-4.2142, 37.6472], [-4.22787, 37.63978], [-4.22403, 37.63102], [-4.21844, 37.62762], [-4.22181, 37.62195], [-4.21055, 37.61681], [-4.20759, 37.60983], [-4.20206, 37.61514], [-4.19573, 37.61148], [-4.19524, 37.61535], [-4.18783, 37.61656], [-4.17264, 37.61061], [-4.17234, 37.60649], [-4.16302, 37.59937], [-4.17052, 37.58847], [-4.16131, 37.58788], [-4.16242, 37.58176], [-4.15831, 37.57955], [-4.16099, 37.57516], [-4.14979, 37.57432], [-4.14948, 37.56751], [-4.14784, 37.5706], [-4.14387, 37.56942], [-4.14608, 37.56371], [-4.12102, 37.55459], [-4.12236, 37.54677], [-4.11419, 37.54761], [-4.11341, 37.53936], [-4.10884, 37.533], [-4.10446, 37.53398], [-4.09868, 37.53047], [-4.09816, 37.51136], [-4.08511, 37.51349], [-4.07966, 37.50914], [-4.05999, 37.50581], [-4.07444, 37.49304], [-4.08765, 37.48607], [-4.07016, 37.47212], [-4.04814, 37.46797], [-4.03187, 37.44246], [-4.02902, 37.44219], [-4.01888, 37.41973], [-4.00082, 37.40209], [-4.01746, 37.40133], [-4.03117, 37.40627], [-4.05373, 37.40256], [-4.08594, 37.40375], [-4.09823, 37.40012], [-4.10547, 37.38754], [-4.12722, 37.37826], [-4.14484, 37.36286], [-4.15784, 37.34225], [-4.17317, 37.34864], [-4.20403, 37.35291], [-4.20933, 37.35247], [-4.22849, 37.33734], [-4.23642, 37.33585], [-4.23905, 37.32778], [-4.2352, 37.31192], [-4.23651, 37.29722], [-4.24813, 37.26912], [-4.26325, 37.26038], [-4.25762, 37.2504], [-4.25531, 37.22956], [-4.26345, 37.22749], [-4.28315, 37.20733], [-4.29557, 37.19939], [-4.32063, 37.19175], [-4.32813, 37.18407], [-4.3326, 37.19111], [-4.33182, 37.1951], [-4.32236, 37.20414], [-4.34521, 37.21361], [-4.37164, 37.2152], [-4.38257, 37.23155], [-4.38489, 37.23781], [-4.37744, 37.24177], [-4.37993, 37.24822], [-4.37606, 37.25722], [-4.38026, 37.26024], [-4.37772, 37.27035], [-4.3797, 37.27523], [-4.38387, 37.27734], [-4.39147, 37.27361], [-4.40364, 37.27648], [-4.40737, 37.27379], [-4.41708, 37.28148], [-4.42449, 37.27945], [-4.42952, 37.27386], [-4.44445, 37.27796], [-4.4582, 37.25779], [-4.46565, 37.25858], [-4.46605, 37.25582], [-4.46188, 37.25429], [-4.46896, 37.24944], [-4.47705, 37.25736], [-4.48518, 37.25249], [-4.48534, 37.24974], [-4.47755, 37.24473], [-4.48134, 37.23802], [-4.49117, 37.23858], [-4.48911, 37.23119], [-4.49808, 37.22334], [-4.49935, 37.23035], [-4.50895, 37.22189], [-4.5346, 37.21189], [-4.53947, 37.21131], [-4.53969, 37.21514], [-4.54472, 37.21739], [-4.56117, 37.21931], [-4.57047, 37.21604], [-4.57025, 37.21104], [-4.57543, 37.20926], [-4.60166, 37.20945], [-4.60329, 37.21474], [-4.5961, 37.2242], [-4.60133, 37.23405], [-4.61482, 37.24279], [-4.61396, 37.25493], [-4.63023, 37.25446], [-4.64533, 37.24685], [-4.65335, 37.25583], [-4.65094, 37.25634], [-4.65403, 37.27536], [-4.65766, 37.2752], [-4.66462, 37.28673], [-4.68039, 37.28943], [-4.67547, 37.2913], [-4.67522, 37.30125], [-4.67216, 37.30202], [-4.67068, 37.29775], [-4.66225, 37.29357], [-4.66055, 37.29522], [-4.66588, 37.29938], [-4.65745, 37.30439], [-4.66684, 37.31003], [-4.677, 37.30732], [-4.6839, 37.31522], [-4.67871, 37.31832], [-4.68102, 37.32389], [-4.66753, 37.3198], [-4.66834, 37.3265], [-4.67925, 37.32957], [-4.67802, 37.33238], [-4.67143, 37.33245], [-4.67102, 37.33515], [-4.67978, 37.33683], [-4.6826, 37.33114], [-4.68682, 37.33123], [-4.68472, 37.34072], [-4.69434, 37.34272], [-4.69641, 37.34724], [-4.70384, 37.34669], [-4.70356, 37.35051], [-4.71434, 37.35313], [-4.71867, 37.3585], [-4.72491, 37.35342], [-4.72261, 37.34643], [-4.73295, 37.34278], [-4.72606, 37.34183], [-4.72922, 37.33533], [-4.74873, 37.33091], [-4.76745, 37.33773], [-4.77565, 37.33304], [-4.78009, 37.33541], [-4.78223, 37.3285], [-4.79993, 37.34449], [-4.82213, 37.35819], [-4.82361, 37.36876], [-4.81473, 37.37261], [-4.81469, 37.37753], [-4.82602, 37.37908], [-4.8252, 37.38335], [-4.83015, 37.3841], [-4.83097, 37.3904], [-4.83781, 37.39835], [-4.84382, 37.39959], [-4.84101, 37.40424], [-4.84521, 37.40358], [-4.84981, 37.41066], [-4.84207, 37.41504], [-4.83798, 37.42208], [-4.84064, 37.43602], [-4.85433, 37.43939], [-4.88474, 37.43798], [-4.88369, 37.44503], [-4.8756, 37.45033], [-4.88335, 37.45306], [-4.88898, 37.46119], [-4.89537, 37.45974], [-4.90433, 37.46673], [-4.90698, 37.47534], [-4.91117, 37.47767], [-4.90876, 37.48499], [-4.91309, 37.48661], [-4.91271, 37.48247], [-4.91636, 37.48445], [-4.91641, 37.49324], [-4.90743, 37.49501], [-4.90664, 37.49977], [-4.92421, 37.50022], [-4.93116, 37.50596], [-4.92716, 37.51348], [-4.93482, 37.5125], [-4.93368, 37.51979], [-4.94962, 37.52191], [-4.94464, 37.52194], [-4.94011, 37.52765], [-4.94061, 37.53684], [-4.93196, 37.54597], [-4.93625, 37.55024], [-4.93237, 37.5538], [-4.93159, 37.56276], [-4.93807, 37.5699], [-4.93075, 37.57589], [-4.93575, 37.58604], [-4.93023, 37.58956], [-4.93489, 37.59984], [-4.93173, 37.61659], [-4.94105, 37.62075]]]]}}, {"type": "Feature", "properties": {"province": "Granada"}, "geometry": {"type": "MultiPolygon", "coordinates": [[[[-3.6215, 36.74106], [-3.66067, 36.74586], [-3.67695, 36.72952], [-3.69067, 36.73067], [-3.69452, 36.72772], [-3.70363, 36.73374], [-3.7187, 36.73255], [-3.72692, 36.72867], [-3.7275, 36.71918], [-3.73527, 36.72001], [-3.73561, 36.72811], [-3.75009, 36.73809], [-3.76208, 36.73498], [-3.76398, 36.72931], [-3.77177, 36.73102], [-3.77744, 36.73792], [-3.78228, 36.76445], [-3.77765, 36.77472], [-3.76663, 36.78538], [-3.77101, 36.79656], [-3.76814, 36.80196], [-3.7865, 36.81238], [-3.79061, 36.82069], [-3.79533, 36.821], [-3.79338, 36.82662], [-3.79609, 36.83154], [-3.8152, 36.84184], [-3.81532, 36.84685], [-3.8267, 36.85533], [-3.84233, 36.85821], [-3.86761, 36.85068], [-3.88255, 36.85769], [-3.88079, 36.85988], [-3.89056, 36.86755], [-3.8955, 36.86536], [-3.91255, 36.8694], [-3.9186, 36.86808], [-3.9241, 36.87898], [-3.92952, 36.88288], [-3.96, 36.88753], [-3.97078, 36.89205], [-3.99872, 36.88993], [-4.01382, 36.89864], [-4.03611, 36.90465], [-4.04656, 36.90303], [-4.05388, 36.9149], [-4.06124, 36.9199], [-4.08996, 36.93216], [-4.09862, 36.94257], [-4.09973, 36.95272], [-4.11137, 36.94966], [-4.16662, 36.95702], [-4.16909, 36.96248], [-4.18831, 36.97723], [-4.21542, 36.99177], [-4.2244, 37.00919], [-4.22335, 37.01234], [-4.23134, 37.01694], [-4.25193, 37.02298], [-4.26044, 37.0173], [-4.27251, 37.0149], [-4.27004, 37.02703], [-4.27276, 37.04172], [-4.281, 37.05672], [-4.28707, 37.11952], [-4.32813, 37.18407], [-4.32063, 37.19175], [-4.29557, 37.19939], [-4.28315, 37.20733], [-4.26345, 37.22749], [-4.25531, 37.22956], [-4.25762, 37.2504], [-4.26325, 37.26038], [-4.24813, 37.26912], [-4.23651, 37.29722], [-4.2352, 37.31192], [-4.23905, 37.32778], [-4.23642, 37.33585], [-4.22849, 37.33734], [-4.20933, 37.35247], [-4.20403, 37.35291], [-4.17317, 37.34864], [-4.15784, 37.34225], [-4.14484, 37.36286], [-4.12722, 37.37826], [-4.10547, 37.38754], [-4.09823, 37.40012], [-4.08594, 37.40375], [-4.05373, 37.40256], [-4.03117, 37.40627], [-4.01746, 37.40133], [-4.00082, 37.40209], [-3.98297, 37.38801], [-3.97319, 37.38817], [-3.95089, 37.37835], [-3.91227, 37.3784], [-3.88123, 37.38763], [-3.84224, 37.38575], [-3.8305, 37.40141], [-3.82542, 37.40243], [-3.82653, 37.41352], [-3.81803, 37.42136], [-3.80236, 37.4528], [-3.80873, 37.45926], [-3.79172, 37.46619], [-3.78656, 37.47832], [-3.79154, 37.47888], [-3.79254, 37.48247], [-3.78557, 37.4909], [-3.77583, 37.48826], [-3.77624, 37.47648], [-3.7447, 37.48682], [-3.7301, 37.48752], [-3.71152, 37.50313], [-3.68444, 37.51765], [-3.6276, 37.52846], [-3.59992, 37.54738], [-3.59079, 37.5485], [-3.59173, 37.5509], [-3.55976, 37.56523], [-3.55678, 37.57244], [-3.53649, 37.58026], [-3.53533, 37.58531], [-3.53903, 37.59294], [-3.53678, 37.59668], [-3.50647, 37.61728], [-3.48006, 37.60125], [-3.46116, 37.59842], [-3.43687, 37.5739], [-3.43379, 37.57555], [-3.42451, 37.56953], [-3.3993, 37.56405], [-3.37883, 37.56416], [-3.37445, 37.56751], [-3.36657, 37.56761], [-3.35732, 37.57637], [-3.34482, 37.57562], [-3.33132, 37.58183], [-3.29632, 37.58811], [-3.28564, 37.60796], [-3.26099, 37.63345], [-3.26233, 37.63885], [-3.23279, 37.63799], [-3.21586, 37.64427], [-3.17259, 37.64329], [-3.13216, 37.61408], [-3.09973, 37.60549], [-3.09942, 37.60216], [-3.0882, 37.59554], [-3.0836, 37.59923], [-3.0765, 37.5993], [-3.07347, 37.6034], [-3.05793, 37.60664], [-3.05638, 37.61337], [-3.05097, 37.61836], [-3.0435, 37.61587], [-3.03508, 37.61861], [-3.0287, 37.61406], [-3.02643, 37.61565], [-3.02147, 37.61002], [-3.00343, 37.60813], [-2.99566, 37.60312], [-2.97818, 37.60275], [-2.97638, 37.60666], [-2.98441, 37.61425], [-2.97399, 37.62291], [-2.97792, 37.63398], [-2.9022, 37.66571], [-2.88404, 37.68132], [-2.89891, 37.68479], [-2.90153, 37.68929], [-2.9041, 37.70989], [-2.90072, 37.72316], [-2.90715, 37.72918], [-2.90243, 37.73895], [-2.90378, 37.75117], [-2.89006, 37.76146], [-2.88029, 37.75995], [-2.87316, 37.79149], [-2.85696, 37.80989], [-2.84355, 37.81773], [-2.83958, 37.82867], [-2.82889, 37.83717], [-2.83035, 37.83941], [-2.81973, 37.85293], [-2.81961, 37.87614], [-2.80624, 37.88094], [-2.78461, 37.91765], [-2.7732, 37.92594], [-2.76745, 37.91935], [-2.75936, 37.92399], [-2.74315, 37.93578], [-2.73668, 37.94733], [-2.72418, 37.95583], [-2.72286, 37.96246], [-2.71556, 37.96223], [-2.70267, 37.97153], [-2.68973, 37.97382], [-2.66983, 37.96144], [-2.6557, 37.96626], [-2.64253, 37.98108], [-2.62033, 37.98822], [-2.60512, 37.99815], [-2.59771, 38.00721], [-2.59994, 38.04362], [-2.59585, 38.05319], [-2.59896, 38.05877], [-2.60663, 38.06145], [-2.59397, 38.06495], [-2.58553, 38.07254], [-2.5734, 38.07426], [-2.573, 38.07783], [-2.56538, 38.08354], [-2.55785, 38.08154], [-2.55233, 38.08409], [-2.5406, 38.07542], [-2.52511, 38.0697], [-2.5056, 38.06838], [-2.48232, 38.05308], [-2.47171, 38.05668], [-2.46298, 38.04988], [-2.46032, 38.05133], [-2.43238, 38.04236], [-2.42484, 38.03292], [-2.39403, 38.03071], [-2.37346, 38.02269], [-2.3587, 38.02184], [-2.34122, 38.02583], [-2.29837, 38.0028], [-2.29627, 37.9878], [-2.28369, 37.96941], [-2.27639, 37.95987], [-2.25825, 37.94963], [-2.24738, 37.93422], [-2.20779, 37.91625], [-2.25078, 37.89718], [-2.26538, 37.88095], [-2.28851, 37.88514], [-2.29494, 37.87632], [-2.29486, 37.84789], [-2.28938, 37.83148], [-2.29356, 37.82812], [-2.30177, 37.80828], [-2.29127, 37.78919], [-2.27678, 37.77622], [-2.28707, 37.7514], [-2.29472, 37.74817], [-2.30751, 37.72327], [-2.30502, 37.71914], [-2.30795, 37.71671], [-2.30659, 37.71021], [-2.31327, 37.71137], [-2.32334, 37.69387], [-2.32579, 37.67201], [-2.31951, 37.65963], [-2.31996, 37.64809], [-2.30886, 37.63572], [-2.31042, 37.63001], [-2.3167, 37.62184], [-2.34043, 37.62342], [-2.34543, 37.62922], [-2.35647, 37.62537], [-2.35957, 37.62127], [-2.37388, 37.62921], [-2.39127, 37.63248], [-2.38879, 37.61801], [-2.37598, 37.61226], [-2.3679, 37.59158], [-2.36981, 37.58101], [-2.37493, 37.57783], [-2.36789, 37.57222], [-2.36746, 37.56305], [-2.3743, 37.55735], [-2.35573, 37.54699], [-2.36044, 37.5375], [-2.35851, 37.52229], [-2.36552, 37.51987], [-2.38115, 37.52292], [-2.3944, 37.51762], [-2.39722, 37.51338], [-2.40295, 37.51556], [-2.4072, 37.52446], [-2.4117, 37.52494], [-2.41604, 37.51598], [-2.42378, 37.51288], [-2.43428, 37.50948], [-2.45632, 37.50943], [-2.46016, 37.50755], [-2.46197, 37.49869], [-2.45752, 37.49083], [-2.4741, 37.48347], [-2.50309, 37.48351], [-2.51415, 37.47953], [-2.53505, 37.46204], [-2.56845, 37.44639], [-2.57727, 37.42903], [-2.59679, 37.42102], [-2.61506, 37.40569], [-2.63562, 37.39421], [-2.6418, 37.3875], [-2.64319, 37.37594], [-2.63509, 37.36472], [-2.63729, 37.34333], [-2.6546, 37.34061], [-2.65048, 37.32586], [-2.65459, 37.31763], [-2.65087, 37.31233], [-2.66303, 37.29614], [-2.66565, 37.28533], [-2.66171, 37.26668], [-2.66751, 37.24952], [-2.66379, 37.23276], [-2.65763, 37.22892], [-2.66012, 37.21199], [-2.66461, 37.21183], [-2.66911, 37.2172], [-2.69273, 37.21723], [-2.69416, 37.22076], [-2.70986, 37.22543], [-2.71853, 37.2338], [-2.72532, 37.23114], [-2.73302, 37.23732], [-2.73999, 37.22876], [-2.75903, 37.22671], [-2.77979, 37.25107], [-2.77485, 37.25354], [-2.77896, 37.25696], [-2.77896, 37.26263], [-2.79499, 37.26341], [-2.8149, 37.27087], [-2.82005, 37.27816], [-2.84542, 37.27907], [-2.85116, 37.27607], [-2.85566, 37.26861], [-2.85905, 37.25051], [-2.86878, 37.2462], [-2.86652, 37.24305], [-2.87496, 37.23146], [-2.87283, 37.21989], [-2.88027, 37.20395], [-2.88099, 37.1871], [-2.88881, 37.18207], [-2.8953, 37.16705], [-2.91101, 37.1635], [-2.9147, 37.1585], [-2.92915, 37.15657], [-2.93058, 37.1398], [-2.9409, 37.13066], [-2.94173, 37.12465], [-2.94699, 37.12221], [-2.94288, 37.11177], [-2.94833, 37.10615], [-2.94896, 37.09655], [-2.96974, 37.09657], [-2.98114, 37.09297], [-3.00026, 37.09498], [-3.01501, 37.11328], [-3.02639, 37.11657], [-3.02958, 37.11325], [-3.02198, 37.09891], [-3.02396, 37.08457], [-3.01763, 37.07008], [-3.01623, 37.05221], [-3.00598, 37.03459], [-3.00571, 37.02334], [-2.99907, 37.02133], [-2.99894, 37.01222], [-2.99333, 37.01347], [-2.9891, 37.0073], [-2.98251, 37.00597], [-2.97621, 36.97812], [-2.97842, 36.97385], [-2.98501, 36.97191], [-2.98477, 36.96443], [-2.9905, 36.95818], [-3.01418, 36.95637], [-3.02219, 36.95408], [-3.02934, 36.94753], [-3.03221, 36.94229], [-3.02839, 36.93409], [-3.03138, 36.9324], [-3.03132, 36.92458], [-3.04362, 36.92114], [-3.05719, 36.91154], [-3.06629, 36.91242], [-3.0687, 36.91675], [-3.07193, 36.91929], [-3.06897, 36.91565], [-3.06972, 36.89964], [-3.06527, 36.89874], [-3.05664, 36.88506], [-3.04327, 36.87912], [-3.03208, 36.86094], [-3.02901, 36.84444], [-3.04281, 36.83188], [-3.07395, 36.82468], [-3.09268, 36.80977], [-3.14019, 36.78778], [-3.134, 36.78132], [-3.13685, 36.76643], [-3.12869, 36.75086], [-3.14405, 36.74395], [-3.15519, 36.74742], [-3.16711, 36.74423], [-3.17491, 36.74902], [-3.18682, 36.75032], [-3.20206, 36.75046], [-3.21181, 36.74526], [-3.25001, 36.75434], [-3.30486, 36.73823], [-3.31637, 36.74183], [-3.33733, 36.73872], [-3.34753, 36.73299], [-3.36477, 36.71438], [-3.38831, 36.7113], [-3.39813, 36.70542], [-3.40328, 36.70724], [-3.40741, 36.7017], [-3.41313, 36.70264], [-3.41991, 36.69389], [-3.46045, 36.69639], [-3.46877, 36.69362], [-3.48269, 36.69728], [-3.50826, 36.71747], [-3.51311, 36.71872], [-3.51504, 36.71618], [-3.51381, 36.71825], [-3.51969, 36.72097], [-3.5212, 36.71944], [-3.52251, 36.72001], [-3.52199, 36.72218], [-3.52427, 36.72048], [-3.52282, 36.72301], [-3.52585, 36.72412], [-3.5294, 36.72204], [-3.51413, 36.71244], [-3.53346, 36.72207], [-3.55093, 36.71457], [-3.5792, 36.72317], [-3.60201, 36.74464], [-3.6215, 36.74106]]], [[[-3.38975, 36.70813], [-3.38955, 36.70864], [-3.38954, 36.70815], [-3.38975, 36.70813]]]]}}, {"type": "Feature", "properties": {"province": "Huelva"}, "geometry": {"type": "Polygon", "coordinates": [[[-6.92161, 37.16998], [-6.90835, 37.15739], [-6.89986, 37.15483], [-6.88918, 37.14593], [-6.853, 37.13188], [-6.83762, 37.11682], [-6.83212, 37.10798], [-6.85053, 37.12765], [-6.93455, 37.16384], [-6.94483, 37.17051], [-6.94974, 37.1779], [-6.95253, 37.17556], [-6.94756, 37.16959], [-6.94735, 37.16707], [-6.94871, 37.16395], [-6.94786, 37.16628], [-6.95428, 37.17024], [-7.01488, 37.19884], [-7.06314, 37.21091], [-7.07222, 37.20578], [-7.14566, 37.20793], [-7.27089, 37.20178], [-7.32315, 37.18964], [-7.33087, 37.18669], [-7.3289, 37.18513], [-7.32729, 37.18348], [-7.33206, 37.18496], [-7.32937, 37.18289], [-7.32746, 37.18078], [-7.33194, 37.18316], [-7.37268, 37.1704], [-7.39484, 37.17673], [-7.40313, 37.17442], [-7.40779, 37.18253], [-7.41393, 37.22659], [-7.42043, 37.2393], [-7.43353, 37.24974], [-7.43233, 37.25935], [-7.42169, 37.27378], [-7.43335, 37.28802], [-7.44218, 37.3113], [-7.43903, 37.32692], [-7.44508, 37.34479], [-7.43647, 37.36136], [-7.44048, 37.39102], [-7.44902, 37.40099], [-7.46271, 37.40899], [-7.46029, 37.41368], [-7.44794, 37.4155], [-7.44557, 37.41871], [-7.45762, 37.42919], [-7.45938, 37.43987], [-7.45671, 37.45233], [-7.4688, 37.46854], [-7.46944, 37.47852], [-7.46348, 37.48592], [-7.4668, 37.491], [-7.48422, 37.4982], [-7.49107, 37.50938], [-7.49216, 37.52217], [-7.51172, 37.52488], [-7.5123, 37.53778], [-7.52004, 37.54742], [-7.5226, 37.55664], [-7.51225, 37.56023], [-7.50665, 37.55759], [-7.5076, 37.567], [-7.51386, 37.56591], [-7.51588, 37.56942], [-7.50123, 37.57799], [-7.50162, 37.5858], [-7.4963, 37.59441], [-7.50387, 37.60467], [-7.49731, 37.60702], [-7.48874, 37.60419], [-7.48631, 37.61226], [-7.47987, 37.61847], [-7.48244, 37.62388], [-7.47031, 37.62523], [-7.47131, 37.63433], [-7.46351, 37.64259], [-7.46734, 37.64943], [-7.45485, 37.64628], [-7.45487, 37.65418], [-7.45132, 37.65828], [-7.45572, 37.66235], [-7.44381, 37.66439], [-7.45258, 37.67779], [-7.44404, 37.68746], [-7.44784, 37.69763], [-7.44369, 37.70206], [-7.43938, 37.70035], [-7.43641, 37.7178], [-7.43071, 37.72215], [-7.42635, 37.73393], [-7.42858, 37.74097], [-7.41868, 37.74384], [-7.42271, 37.75489], [-7.42137, 37.75894], [-7.41373, 37.75945], [-7.4076, 37.76717], [-7.39664, 37.76395], [-7.39093, 37.77124], [-7.38267, 37.77483], [-7.37776, 37.78314], [-7.36895, 37.78701], [-7.36638, 37.79283], [-7.32513, 37.81532], [-7.30984, 37.83637], [-7.30105, 37.84206], [-7.29734, 37.85704], [-7.28347, 37.86897], [-7.27957, 37.87643], [-7.28222, 37.89769], [-7.27363, 37.89907], [-7.27409, 37.90448], [-7.26956, 37.90631], [-7.26796, 37.91258], [-7.26143, 37.91815], [-7.26196, 37.92432], [-7.25506, 37.92273], [-7.2577, 37.93308], [-7.25318, 37.93847], [-7.25459, 37.9463], [-7.24826, 37.95477], [-7.2518, 37.95998], [-7.24968, 37.96689], [-7.26244, 37.97986], [-7.25004, 37.98564], [-7.24569, 37.99219], [-7.23065, 37.99151], [-7.22672, 37.98812], [-7.216, 37.99596], [-7.20572, 37.99765], [-7.20698, 38.00029], [-7.20227, 38.00343], [-7.19305, 38.00072], [-7.18705, 38.00273], [-7.18396, 37.99657], [-7.17741, 37.99839], [-7.17345, 37.99283], [-7.16489, 37.99586], [-7.15623, 37.99402], [-7.14514, 38.00294], [-7.13732, 37.999], [-7.12067, 38.00463], [-7.12911, 38.01075], [-7.12769, 38.01968], [-7.132, 38.02155], [-7.1249, 38.02512], [-7.12838, 38.02955], [-7.12089, 38.03305], [-7.11604, 38.03183], [-7.11523, 38.03652], [-7.1108, 38.03619], [-7.1084, 38.04089], [-7.09871, 38.04388], [-7.08224, 38.03612], [-7.08278, 38.03374], [-7.06723, 38.03356], [-7.06673, 38.02737], [-7.06217, 38.02672], [-7.06316, 38.01918], [-7.04785, 38.01767], [-7.04678, 38.01426], [-7.02502, 38.02467], [-7.01472, 38.02113], [-7.00202, 38.0224], [-7.003, 38.02996], [-6.99898, 38.03599], [-7.00208, 38.04469], [-6.99976, 38.0495], [-6.98984, 38.05558], [-6.9878, 38.10198], [-6.97559, 38.10417], [-6.97512, 38.1082], [-6.97066, 38.11055], [-6.9724, 38.11483], [-6.96502, 38.13193], [-6.95943, 38.13348], [-6.95782, 38.13763], [-6.96155, 38.14053], [-6.95889, 38.15037], [-6.95218, 38.15278], [-6.95803, 38.15629], [-6.96243, 38.1546], [-6.96839, 38.15927], [-6.96914, 38.16631], [-6.9536, 38.18633], [-6.9348, 38.20046], [-6.93156, 38.20821], [-6.92383, 38.2051], [-6.92327, 38.20057], [-6.90248, 38.20181], [-6.84843, 38.17724], [-6.82237, 38.17382], [-6.79509, 38.17854], [-6.79286, 38.16634], [-6.7989, 38.15524], [-6.79954, 38.1438], [-6.80914, 38.1347], [-6.81582, 38.12014], [-6.80782, 38.11111], [-6.79995, 38.1148], [-6.79688, 38.11047], [-6.78916, 38.10917], [-6.77005, 38.11211], [-6.77364, 38.10467], [-6.76493, 38.106], [-6.76457, 38.10241], [-6.77009, 38.09946], [-6.76102, 38.09787], [-6.75822, 38.09271], [-6.75449, 38.09501], [-6.73199, 38.09005], [-6.73046, 38.09244], [-6.73516, 38.09394], [-6.72939, 38.0995], [-6.72417, 38.09691], [-6.71975, 38.10062], [-6.71697, 38.09992], [-6.71504, 38.09249], [-6.7069, 38.09653], [-6.69182, 38.09494], [-6.68867, 38.10023], [-6.66037, 38.09237], [-6.65303, 38.09648], [-6.6493, 38.09002], [-6.64206, 38.09753], [-6.6221, 38.09701], [-6.58053, 38.05277], [-6.58717, 38.02678], [-6.58358, 38.02128], [-6.57215, 38.02023], [-6.56965, 38.02271], [-6.57152, 38.02414], [-6.56524, 38.02699], [-6.54569, 38.02812], [-6.52482, 38.02151], [-6.49504, 38.01913], [-6.49174, 38.00947], [-6.47656, 38.00783], [-6.46532, 38.01121], [-6.46489, 38.01388], [-6.47218, 38.01579], [-6.47386, 38.02443], [-6.46585, 38.03532], [-6.44361, 38.04696], [-6.45244, 38.05596], [-6.44432, 38.0596], [-6.4139, 38.05856], [-6.38846, 38.04814], [-6.36725, 38.04892], [-6.35868, 38.03108], [-6.3591, 38.01666], [-6.34704, 38.00282], [-6.32929, 37.99827], [-6.30337, 37.97824], [-6.25195, 37.97138], [-6.23924, 37.95893], [-6.21481, 37.96149], [-6.20872, 37.95856], [-6.20152, 37.96206], [-6.202, 37.95922], [-6.19418, 37.95473], [-6.19599, 37.94874], [-6.18024, 37.94103], [-6.18474, 37.92802], [-6.1707, 37.91009], [-6.16668, 37.90882], [-6.1643, 37.91778], [-6.15709, 37.91661], [-6.15187, 37.91954], [-6.15127, 37.91603], [-6.14571, 37.92069], [-6.1382, 37.90841], [-6.13188, 37.90855], [-6.12556, 37.9042], [-6.12485, 37.89344], [-6.113, 37.88925], [-6.11072, 37.88361], [-6.12056, 37.8834], [-6.12107, 37.88788], [-6.13202, 37.88003], [-6.13693, 37.88397], [-6.14455, 37.88366], [-6.15046, 37.87507], [-6.15921, 37.87214], [-6.15967, 37.86455], [-6.16376, 37.85942], [-6.15624, 37.85278], [-6.14175, 37.85543], [-6.13875, 37.84449], [-6.13246, 37.83942], [-6.13426, 37.83299], [-6.12879, 37.83166], [-6.12492, 37.82344], [-6.12581, 37.81782], [-6.12094, 37.81636], [-6.12685, 37.81166], [-6.12396, 37.8047], [-6.12649, 37.79656], [-6.13811, 37.79565], [-6.13362, 37.78805], [-6.143, 37.78731], [-6.14711, 37.79371], [-6.15243, 37.79486], [-6.15725, 37.79066], [-6.16311, 37.79423], [-6.16742, 37.79279], [-6.16776, 37.79579], [-6.17285, 37.79591], [-6.17198, 37.7985], [-6.17787, 37.79846], [-6.18466, 37.80967], [-6.2024, 37.80553], [-6.21546, 37.79154], [-6.20874, 37.76947], [-6.20483, 37.76603], [-6.21983, 37.75518], [-6.22011, 37.74812], [-6.21623, 37.74494], [-6.2225, 37.73934], [-6.22702, 37.73889], [-6.22729, 37.74158], [-6.23557, 37.73904], [-6.233, 37.74294], [-6.23516, 37.74439], [-6.24437, 37.74074], [-6.25242, 37.74278], [-6.2542, 37.74737], [-6.24467, 37.74775], [-6.25232, 37.76314], [-6.27849, 37.75841], [-6.31102, 37.76487], [-6.39003, 37.74769], [-6.42348, 37.73407], [-6.43088, 37.72746], [-6.44999, 37.7189], [-6.47512, 37.72514], [-6.48368, 37.71999], [-6.47567, 37.71449], [-6.47344, 37.70909], [-6.47867, 37.71178], [-6.47975, 37.70486], [-6.48547, 37.69682], [-6.49125, 37.69651], [-6.49306, 37.6885], [-6.5013, 37.68885], [-6.4978, 37.6828], [-6.50156, 37.66721], [-6.50852, 37.66838], [-6.5189, 37.66198], [-6.52549, 37.66425], [-6.53609, 37.65098], [-6.53352, 37.64544], [-6.53679, 37.64073], [-6.52947, 37.63676], [-6.53849, 37.6259], [-6.53707, 37.62104], [-6.52852, 37.6158], [-6.522, 37.61915], [-6.52284, 37.62193], [-6.51981, 37.62071], [-6.51416, 37.62513], [-6.51128, 37.62227], [-6.5086, 37.62483], [-6.50848, 37.62109], [-6.50409, 37.62422], [-6.50094, 37.62131], [-6.49843, 37.62274], [-6.50099, 37.61973], [-6.49666, 37.61701], [-6.49004, 37.62137], [-6.48519, 37.61587], [-6.48286, 37.62119], [-6.47662, 37.61914], [-6.47346, 37.6227], [-6.46635, 37.61979], [-6.45641, 37.62322], [-6.44905, 37.6205], [-6.44317, 37.62337], [-6.41359, 37.61963], [-6.40924, 37.61409], [-6.39557, 37.61122], [-6.39413, 37.60395], [-6.40227, 37.59858], [-6.39929, 37.59835], [-6.39974, 37.59096], [-6.3934, 37.58563], [-6.39546, 37.58267], [-6.40035, 37.58395], [-6.40276, 37.58006], [-6.39346, 37.55676], [-6.3894, 37.55161], [-6.37515, 37.54629], [-6.36647, 37.53563], [-6.37006, 37.52957], [-6.36733, 37.51776], [-6.36209, 37.51334], [-6.35652, 37.49621], [-6.34688, 37.49344], [-6.33877, 37.48516], [-6.33295, 37.46463], [-6.32205, 37.45163], [-6.31232, 37.44565], [-6.30886, 37.43672], [-6.30581, 37.43576], [-6.30566, 37.42555], [-6.31124, 37.42296], [-6.31255, 37.41864], [-6.32146, 37.42057], [-6.32764, 37.41608], [-6.35645, 37.41205], [-6.36209, 37.40147], [-6.35434, 37.39713], [-6.35452, 37.3945], [-6.36196, 37.37574], [-6.34586, 37.36555], [-6.36869, 37.34944], [-6.37822, 37.34608], [-6.38457, 37.33749], [-6.34552, 37.314], [-6.33297, 37.29863], [-6.34255, 37.28103], [-6.33708, 37.27474], [-6.34973, 37.26517], [-6.35433, 37.2555], [-6.35124, 37.24961], [-6.35985, 37.2381], [-6.34525, 37.21828], [-6.35338, 37.19894], [-6.35056, 37.18056], [-6.33612, 37.16962], [-6.35967, 37.13843], [-6.34318, 37.12801], [-6.34236, 37.12298], [-6.36009, 37.11729], [-6.35631, 37.11064], [-6.37824, 37.09589], [-6.38497, 37.08515], [-6.38639, 37.07629], [-6.3787, 37.04442], [-6.35925, 37.00618], [-6.35394, 36.98849], [-6.36117, 36.9719], [-6.35972, 36.95972], [-6.36381, 36.9458], [-6.37889, 36.9347], [-6.33101, 36.8988], [-6.33698, 36.89909], [-6.34487, 36.89228], [-6.35542, 36.8485], [-6.35417, 36.82878], [-6.34071, 36.80733], [-6.34241, 36.79777], [-6.36519, 36.78972], [-6.36872, 36.7953], [-6.3874, 36.79973], [-6.39402, 36.80421], [-6.44335, 36.89861], [-6.45814, 36.91944], [-6.50695, 36.9663], [-6.5333, 36.9846], [-6.59977, 37.02426], [-6.75616, 37.10318], [-6.80365, 37.12381], [-6.83035, 37.12853], [-6.83641, 37.13147], [-6.83049, 37.12925], [-6.8285, 37.13179], [-6.83478, 37.13243], [-6.83477, 37.13557], [-6.87425, 37.14834], [-6.89614, 37.16228], [-6.89874, 37.16079], [-6.89706, 37.16315], [-6.91261, 37.17023], [-6.91011, 37.17108], [-6.91668, 37.1763], [-6.92161, 37.16998]]]}}, {"type": "Feature", "properties": {"province": "Jaén"}, "geometry": {"type": "Polygon", "coordinates": [[[-4.08765, 37.48607], [-4.07444, 37.49304], [-4.05999, 37.50581], [-4.07966, 37.50914], [-4.08511, 37.51349], [-4.09816, 37.51136], [-4.09868, 37.53047], [-4.10446, 37.53398], [-4.10884, 37.533], [-4.11341, 37.53936], [-4.11419, 37.54761], [-4.12236, 37.54677], [-4.12102, 37.55459], [-4.14608, 37.56371], [-4.14387, 37.56942], [-4.14784, 37.5706], [-4.14948, 37.56751], [-4.14979, 37.57432], [-4.16099, 37.57516], [-4.15831, 37.57955], [-4.16242, 37.58176], [-4.16131, 37.58788], [-4.17052, 37.58847], [-4.16302, 37.59937], [-4.17234, 37.60649], [-4.17264, 37.61061], [-4.18783, 37.61656], [-4.19524, 37.61535], [-4.19573, 37.61148], [-4.20206, 37.61514], [-4.20759, 37.60983], [-4.21055, 37.61681], [-4.22181, 37.62195], [-4.21844, 37.62762], [-4.22403, 37.63102], [-4.22787, 37.63978], [-4.2142, 37.6472], [-4.18765, 37.67003], [-4.16437, 37.68151], [-4.18007, 37.69902], [-4.18273, 37.706], [-4.23822, 37.71946], [-4.24017, 37.72711], [-4.22942, 37.75536], [-4.22556, 37.762], [-4.21866, 37.76429], [-4.21874, 37.76718], [-4.20714, 37.77019], [-4.20868, 37.78027], [-4.22581, 37.78669], [-4.27559, 37.79254], [-4.28627, 37.79593], [-4.28755, 37.80049], [-4.28054, 37.83064], [-4.27772, 37.85576], [-4.27992, 37.87651], [-4.27331, 37.89669], [-4.27481, 37.90279], [-4.27095, 37.90546], [-4.27287, 37.9103], [-4.26488, 37.91076], [-4.26239, 37.91508], [-4.25805, 37.93932], [-4.26432, 37.97345], [-4.27766, 38.00019], [-4.28445, 38.00383], [-4.28225, 38.02281], [-4.25942, 38.02241], [-4.26025, 38.02875], [-4.26853, 38.04052], [-4.25051, 38.03924], [-4.24085, 38.04605], [-4.23993, 38.05301], [-4.25156, 38.0482], [-4.25153, 38.06605], [-4.24654, 38.06939], [-4.23628, 38.06279], [-4.23517, 38.0736], [-4.22756, 38.07981], [-4.23365, 38.08359], [-4.2284, 38.08567], [-4.221, 38.08313], [-4.22766, 38.09138], [-4.21792, 38.08838], [-4.21319, 38.09048], [-4.21247, 38.09457], [-4.22123, 38.10349], [-4.21832, 38.11049], [-4.20234, 38.10891], [-4.20308, 38.11363], [-4.19834, 38.11663], [-4.19928, 38.12246], [-4.19458, 38.12809], [-4.17457, 38.13172], [-4.16571, 38.14374], [-4.16093, 38.14517], [-4.16542, 38.14941], [-4.16316, 38.15958], [-4.16856, 38.1653], [-4.16644, 38.1715], [-4.16827, 38.18101], [-4.18698, 38.19508], [-4.19061, 38.2065], [-4.20053, 38.2135], [-4.20197, 38.22044], [-4.1943, 38.23194], [-4.19826, 38.23519], [-4.19676, 38.23965], [-4.20285, 38.24634], [-4.21614, 38.2469], [-4.21526, 38.25518], [-4.20816, 38.26677], [-4.21457, 38.2698], [-4.21025, 38.30078], [-4.21592, 38.30345], [-4.21997, 38.29793], [-4.22832, 38.30042], [-4.22708, 38.30787], [-4.23146, 38.31268], [-4.2379, 38.31301], [-4.23828, 38.31595], [-4.23447, 38.31584], [-4.23818, 38.32297], [-4.23284, 38.3249], [-4.23467, 38.32807], [-4.23841, 38.32628], [-4.24013, 38.33193], [-4.23549, 38.33426], [-4.23788, 38.34], [-4.24025, 38.33786], [-4.24756, 38.34175], [-4.25644, 38.33915], [-4.25662, 38.34286], [-4.26322, 38.34224], [-4.26915, 38.34772], [-4.27181, 38.36542], [-4.27845, 38.37728], [-4.27616, 38.39082], [-4.26635, 38.3985], [-4.25549, 38.40162], [-4.24627, 38.39809], [-4.22317, 38.39742], [-4.15567, 38.3807], [-4.1443, 38.38609], [-4.13405, 38.38443], [-4.12656, 38.37892], [-4.11251, 38.37921], [-4.11037, 38.38237], [-4.08657, 38.37673], [-4.07019, 38.37974], [-4.05085, 38.37618], [-4.04716, 38.37791], [-4.00631, 38.36773], [-3.98943, 38.36997], [-3.96085, 38.36577], [-3.94933, 38.36848], [-3.91279, 38.36784], [-3.87559, 38.37688], [-3.86461, 38.37655], [-3.86003, 38.37279], [-3.85499, 38.37493], [-3.8306, 38.39375], [-3.83233, 38.40013], [-3.82864, 38.41426], [-3.81868, 38.41539], [-3.81637, 38.41923], [-3.80786, 38.42182], [-3.80118, 38.41995], [-3.78561, 38.42527], [-3.76491, 38.42436], [-3.73907, 38.41376], [-3.73001, 38.42437], [-3.69928, 38.41288], [-3.64822, 38.40455], [-3.62047, 38.39399], [-3.59824, 38.39847], [-3.58585, 38.4056], [-3.58636, 38.43395], [-3.58308, 38.45147], [-3.56736, 38.45203], [-3.54384, 38.44631], [-3.53516, 38.43941], [-3.53215, 38.43112], [-3.53436, 38.41966], [-3.52844, 38.40864], [-3.50592, 38.40801], [-3.47101, 38.398], [-3.45049, 38.40063], [-3.43324, 38.40803], [-3.42482, 38.4068], [-3.4104, 38.42356], [-3.4019, 38.42395], [-3.37668, 38.4396], [-3.37566, 38.44241], [-3.38069, 38.44602], [-3.38042, 38.45541], [-3.37501, 38.47524], [-3.32649, 38.48212], [-3.30526, 38.47928], [-3.29676, 38.47057], [-3.28897, 38.47037], [-3.27942, 38.46024], [-3.18002, 38.44992], [-3.13829, 38.43858], [-3.1302, 38.43877], [-3.11807, 38.44869], [-3.06497, 38.47825], [-3.0067, 38.41645], [-3.00258, 38.40793], [-2.99193, 38.42866], [-2.99625, 38.44343], [-2.99359, 38.4495], [-2.97547, 38.45525], [-2.96267, 38.47119], [-2.95542, 38.46855], [-2.93829, 38.47457], [-2.90986, 38.46791], [-2.90451, 38.46972], [-2.88861, 38.4554], [-2.88014, 38.45241], [-2.88378, 38.45803], [-2.87674, 38.45623], [-2.8792, 38.46309], [-2.86872, 38.4653], [-2.86742, 38.47103], [-2.85949, 38.47032], [-2.86102, 38.47549], [-2.85022, 38.47492], [-2.85465, 38.47884], [-2.84781, 38.48182], [-2.83997, 38.47822], [-2.8412, 38.48284], [-2.83788, 38.4857], [-2.8348, 38.47821], [-2.83169, 38.47756], [-2.83141, 38.48758], [-2.82346, 38.48529], [-2.82556, 38.48776], [-2.81705, 38.49418], [-2.81224, 38.49176], [-2.81425, 38.49648], [-2.80874, 38.49541], [-2.80608, 38.50309], [-2.80067, 38.49943], [-2.80061, 38.50428], [-2.7923, 38.50219], [-2.79354, 38.50858], [-2.7857, 38.51141], [-2.78813, 38.5148], [-2.78033, 38.50895], [-2.78113, 38.51523], [-2.77095, 38.51905], [-2.77634, 38.52587], [-2.76906, 38.52923], [-2.76959, 38.53253], [-2.73989, 38.52166], [-2.72942, 38.51125], [-2.70365, 38.50105], [-2.68125, 38.49693], [-2.67266, 38.49665], [-2.62434, 38.5122], [-2.59728, 38.51244], [-2.58518, 38.50338], [-2.5797, 38.50309], [-2.5666, 38.4907], [-2.57362, 38.48795], [-2.57743, 38.47602], [-2.56769, 38.46101], [-2.56732, 38.45288], [-2.57143, 38.44728], [-2.56951, 38.44122], [-2.5774, 38.43459], [-2.57517, 38.43076], [-2.57702, 38.42241], [-2.57251, 38.4146], [-2.56147, 38.41213], [-2.55852, 38.40633], [-2.55021, 38.40296], [-2.5351, 38.40608], [-2.51973, 38.40362], [-2.51598, 38.40021], [-2.48342, 38.39775], [-2.48215, 38.39285], [-2.49355, 38.37117], [-2.49305, 38.36327], [-2.48733, 38.35367], [-2.4803, 38.34894], [-2.4802, 38.32834], [-2.48478, 38.31964], [-2.4854, 38.30148], [-2.48131, 38.29494], [-2.44187, 38.28482], [-2.44019, 38.27422], [-2.43549, 38.27235], [-2.43553, 38.26053], [-2.44038, 38.26035], [-2.44479, 38.25003], [-2.44249, 38.24791], [-2.44655, 38.24477], [-2.44219, 38.24239], [-2.44308, 38.2356], [-2.44051, 38.23269], [-2.45477, 38.21566], [-2.45386, 38.21065], [-2.44552, 38.20489], [-2.44658, 38.185], [-2.4649, 38.17301], [-2.47448, 38.15568], [-2.48723, 38.14884], [-2.49883, 38.13139], [-2.51085, 38.1285], [-2.51755, 38.11219], [-2.528, 38.10223], [-2.53771, 38.09842], [-2.54035, 38.09216], [-2.54972, 38.08973], [-2.55305, 38.0825], [-2.56538, 38.08354], [-2.573, 38.07783], [-2.5734, 38.07426], [-2.58553, 38.07254], [-2.59397, 38.06495], [-2.60632, 38.06186], [-2.59896, 38.05877], [-2.59585, 38.05319], [-2.59994, 38.04362], [-2.59771, 38.00721], [-2.60512, 37.99815], [-2.62033, 37.98822], [-2.64253, 37.98108], [-2.6557, 37.96626], [-2.66983, 37.96144], [-2.68973, 37.97382], [-2.70267, 37.97153], [-2.71556, 37.96223], [-2.72286, 37.96246], [-2.72418, 37.95583], [-2.73668, 37.94733], [-2.74315, 37.93578], [-2.75936, 37.92399], [-2.76745, 37.91935], [-2.7732, 37.92594], [-2.78461, 37.91765], [-2.80624, 37.88094], [-2.81961, 37.87614], [-2.81973, 37.85293], [-2.83035, 37.83941], [-2.82889, 37.83717], [-2.83958, 37.82867], [-2.84355, 37.81773], [-2.85696, 37.80989], [-2.87316, 37.79149], [-2.88029, 37.75995], [-2.89006, 37.76146], [-2.90378, 37.75117], [-2.90243, 37.73895], [-2.90715, 37.72918], [-2.90072, 37.72316], [-2.9041, 37.70989], [-2.90153, 37.68929], [-2.89891, 37.68479], [-2.88404, 37.68132], [-2.9022, 37.66571], [-2.97792, 37.63398], [-2.97399, 37.62291], [-2.98441, 37.61425], [-2.97638, 37.60666], [-2.97818, 37.60275], [-2.99566, 37.60312], [-3.00343, 37.60813], [-3.02147, 37.61002], [-3.02643, 37.61565], [-3.0287, 37.61406], [-3.03508, 37.61861], [-3.0435, 37.61587], [-3.05097, 37.61836], [-3.05638, 37.61337], [-3.05793, 37.60664], [-3.07347, 37.6034], [-3.0765, 37.5993], [-3.0836, 37.59923], [-3.0882, 37.59554], [-3.09942, 37.60216], [-3.09973, 37.60549], [-3.13216, 37.61408], [-3.17259, 37.64329], [-3.21586, 37.64427], [-3.23279, 37.63799], [-3.26233, 37.63885], [-3.26099, 37.63345], [-3.28564, 37.60796], [-3.29632, 37.58811], [-3.33132, 37.58183], [-3.34482, 37.57562], [-3.35732, 37.57637], [-3.36657, 37.56761], [-3.37445, 37.56751], [-3.37883, 37.56416], [-3.3993, 37.56405], [-3.42451, 37.56953], [-3.43379, 37.57555], [-3.43687, 37.5739], [-3.46116, 37.59842], [-3.48006, 37.60125], [-3.50647, 37.61728], [-3.53678, 37.59668], [-3.53903, 37.59294], [-3.53533, 37.58531], [-3.53649, 37.58026], [-3.55678, 37.57244], [-3.55976, 37.56523], [-3.59173, 37.5509], [-3.59079, 37.5485], [-3.59992, 37.54738], [-3.6276, 37.52846], [-3.68444, 37.51765], [-3.71152, 37.50313], [-3.7301, 37.48752], [-3.7447, 37.48682], [-3.77624, 37.47648], [-3.77583, 37.48826], [-3.78557, 37.4909], [-3.79254, 37.48247], [-3.79154, 37.47888], [-3.78656, 37.47832], [-3.79172, 37.46619], [-3.80873, 37.45926], [-3.80236, 37.4528], [-3.81803, 37.42136], [-3.82653, 37.41352], [-3.82542, 37.40243], [-3.8305, 37.40141], [-3.84353, 37.38534], [-3.87156, 37.38828], [-3.89596, 37.38503], [-3.91227, 37.3784], [-3.95089, 37.37835], [-3.97319, 37.38817], [-3.98297, 37.38801], [-4.01888, 37.41973], [-4.02902, 37.44219], [-4.03187, 37.44246], [-4.04814, 37.46797], [-4.07274, 37.47334], [-4.08765, 37.48607]]]}}, {"type": "Feature", "properties": {"province": "Málaga"}, "geometry": {"type": "Polygon", "coordinates": [[[-5.25152, 36.3104], [-5.2595, 36.32235], [-5.26785, 36.32418], [-5.27783, 36.33712], [-5.29131, 36.33679], [-5.32008, 36.32507], [-5.323, 36.33217], [-5.31516, 36.34334], [-5.32131, 36.3465], [-5.33512, 36.37052], [-5.33497, 36.39487], [-5.34715, 36.41865], [-5.35728, 36.42384], [-5.35805, 36.43226], [-5.35545, 36.4338], [-5.36066, 36.44002], [-5.39555, 36.46958], [-5.40414, 36.49462], [-5.40984, 36.49655], [-5.4129, 36.52034], [-5.42515, 36.52492], [-5.4289, 36.53359], [-5.45651, 36.53847], [-5.46215, 36.53643], [-5.46551, 36.52871], [-5.47372, 36.53715], [-5.49142, 36.53722], [-5.51384, 36.5107], [-5.5148, 36.50139], [-5.52303, 36.49845], [-5.53473, 36.50346], [-5.5598, 36.50372], [-5.57216, 36.51265], [-5.58299, 36.51369], [-5.59847, 36.50813], [-5.60792, 36.51203], [-5.60609, 36.52352], [-5.61045, 36.53411], [-5.61048, 36.54423], [-5.59971, 36.55068], [-5.57457, 36.54841], [-5.56704, 36.54245], [-5.54164, 36.53767], [-5.53707, 36.52716], [-5.52333, 36.53112], [-5.51277, 36.54239], [-5.50206, 36.54761], [-5.48955, 36.57046], [-5.47697, 36.57408], [-5.46082, 36.58879], [-5.45554, 36.6197], [-5.4385, 36.61417], [-5.43386, 36.6182], [-5.41277, 36.62138], [-5.40532, 36.62712], [-5.38072, 36.63178], [-5.34335, 36.65992], [-5.33382, 36.67239], [-5.32403, 36.67334], [-5.3304, 36.67932], [-5.31871, 36.69048], [-5.32159, 36.69444], [-5.32762, 36.69489], [-5.32313, 36.71873], [-5.32463, 36.72401], [-5.31214, 36.73501], [-5.30762, 36.75101], [-5.29523, 36.76365], [-5.29093, 36.77517], [-5.31982, 36.78673], [-5.32654, 36.80527], [-5.33536, 36.81729], [-5.34071, 36.81942], [-5.33251, 36.8386], [-5.31543, 36.85545], [-5.30629, 36.85759], [-5.30158, 36.86964], [-5.2693, 36.884], [-5.26589, 36.87543], [-5.2418, 36.86171], [-5.23173, 36.86154], [-5.22513, 36.85633], [-5.22185, 36.84249], [-5.19988, 36.83753], [-5.18696, 36.82901], [-5.17806, 36.82953], [-5.17065, 36.82438], [-5.13504, 36.83837], [-5.12183, 36.85789], [-5.11777, 36.87091], [-5.11341, 36.87356], [-5.11103, 36.8882], [-5.10275, 36.89136], [-5.10565, 36.89779], [-5.08679, 36.90501], [-5.09315, 36.91195], [-5.09187, 36.92062], [-5.09984, 36.93259], [-5.10556, 36.95484], [-5.11011, 36.95933], [-5.09558, 36.9683], [-5.09906, 36.97234], [-5.11233, 36.97629], [-5.11074, 36.98395], [-5.11514, 36.98896], [-5.12331, 36.9906], [-5.14238, 37.00386], [-5.13252, 37.01172], [-5.12284, 37.02769], [-5.11937, 37.02891], [-5.11753, 37.02392], [-5.11358, 37.02533], [-5.11194, 37.01949], [-5.10337, 37.02569], [-5.08339, 37.03142], [-5.05309, 37.0306], [-5.04679, 37.03995], [-5.03358, 37.04893], [-5.02796, 37.04407], [-5.02408, 37.04598], [-5.02671, 37.05168], [-5.00959, 37.05474], [-4.98008, 37.06883], [-4.97914, 37.07277], [-4.95986, 37.08523], [-4.95227, 37.09436], [-4.92145, 37.10433], [-4.92267, 37.10654], [-4.9178, 37.11061], [-4.90828, 37.11528], [-4.90284, 37.1376], [-4.94266, 37.15759], [-4.9396, 37.1757], [-4.92516, 37.17066], [-4.92193, 37.17501], [-4.90757, 37.17487], [-4.90511, 37.18186], [-4.90403, 37.17522], [-4.89611, 37.16733], [-4.9003, 37.15971], [-4.89762, 37.15603], [-4.88985, 37.15505], [-4.88045, 37.16327], [-4.87361, 37.15917], [-4.8567, 37.17357], [-4.86018, 37.17557], [-4.85589, 37.17821], [-4.8589, 37.19071], [-4.8537, 37.19369], [-4.85316, 37.19843], [-4.82466, 37.20037], [-4.81918, 37.19749], [-4.82222, 37.19552], [-4.81871, 37.1919], [-4.82769, 37.18688], [-4.82222, 37.17897], [-4.81433, 37.17962], [-4.8061, 37.17055], [-4.80403, 37.1733], [-4.79892, 37.17213], [-4.8012, 37.16012], [-4.79525, 37.1541], [-4.79158, 37.15486], [-4.79123, 37.16008], [-4.78544, 37.15609], [-4.78182, 37.15896], [-4.77984, 37.16668], [-4.76165, 37.17098], [-4.76002, 37.17726], [-4.73302, 37.1849], [-4.70861, 37.19769], [-4.71363, 37.2017], [-4.71127, 37.20687], [-4.72721, 37.21111], [-4.73231, 37.22615], [-4.71795, 37.23989], [-4.73575, 37.24483], [-4.73004, 37.25346], [-4.71969, 37.2597], [-4.71403, 37.25284], [-4.69883, 37.25681], [-4.69103, 37.25185], [-4.68451, 37.25226], [-4.68259, 37.25634], [-4.67654, 37.25808], [-4.67003, 37.25257], [-4.66942, 37.25569], [-4.6654, 37.25365], [-4.65876, 37.25774], [-4.6446, 37.2467], [-4.63102, 37.25422], [-4.61518, 37.256], [-4.61482, 37.24279], [-4.60133, 37.23405], [-4.5961, 37.2242], [-4.60329, 37.21474], [-4.60166, 37.20945], [-4.57621, 37.20916], [-4.57025, 37.21104], [-4.57047, 37.21604], [-4.56117, 37.21931], [-4.54472, 37.21739], [-4.53969, 37.21514], [-4.53947, 37.21131], [-4.51022, 37.22128], [-4.49935, 37.23035], [-4.49808, 37.22334], [-4.48911, 37.23119], [-4.49117, 37.23858], [-4.48134, 37.23802], [-4.47755, 37.24473], [-4.48572, 37.25198], [-4.47705, 37.25736], [-4.46996, 37.24942], [-4.46585, 37.25103], [-4.46187, 37.25446], [-4.46581, 37.25839], [-4.4582, 37.25779], [-4.44429, 37.27804], [-4.42952, 37.27386], [-4.42449, 37.27945], [-4.41708, 37.28148], [-4.40737, 37.27379], [-4.40364, 37.27648], [-4.39147, 37.27361], [-4.38387, 37.27734], [-4.38037, 37.27572], [-4.37772, 37.27035], [-4.38026, 37.26024], [-4.37606, 37.25722], [-4.37993, 37.24822], [-4.37744, 37.24177], [-4.38489, 37.23781], [-4.38257, 37.23155], [-4.37164, 37.2152], [-4.34521, 37.21361], [-4.32236, 37.20414], [-4.33065, 37.19758], [-4.33218, 37.18998], [-4.32347, 37.18027], [-4.28707, 37.11952], [-4.281, 37.05672], [-4.27276, 37.04172], [-4.27004, 37.02703], [-4.27251, 37.0149], [-4.26044, 37.0173], [-4.25193, 37.02298], [-4.23134, 37.01694], [-4.22335, 37.01234], [-4.2244, 37.00919], [-4.21542, 36.99177], [-4.18831, 36.97723], [-4.16909, 36.96248], [-4.16662, 36.95702], [-4.11137, 36.94966], [-4.09973, 36.95272], [-4.09862, 36.94257], [-4.08996, 36.93216], [-4.06124, 36.9199], [-4.05388, 36.9149], [-4.04656, 36.90303], [-4.03611, 36.90465], [-4.01382, 36.89864], [-3.99872, 36.88993], [-3.97078, 36.89205], [-3.96, 36.88753], [-3.92952, 36.88288], [-3.9241, 36.87898], [-3.9186, 36.86808], [-3.91255, 36.8694], [-3.8955, 36.86536], [-3.89056, 36.86755], [-3.88079, 36.85988], [-3.88255, 36.85769], [-3.86761, 36.85068], [-3.84233, 36.85821], [-3.82717, 36.85553], [-3.81532, 36.84685], [-3.8152, 36.84184], [-3.79609, 36.83154], [-3.79338, 36.82662], [-3.79533, 36.821], [-3.79061, 36.82069], [-3.7865, 36.81238], [-3.76814, 36.80196], [-3.77101, 36.79656], [-3.76663, 36.78538], [-3.77765, 36.77472], [-3.78228, 36.76445], [-3.77923, 36.75887], [-3.78148, 36.75126], [-3.77734, 36.74488], [-3.7781, 36.73765], [-3.78792, 36.74092], [-3.79231, 36.74636], [-3.84472, 36.75355], [-3.84858, 36.75067], [-3.86332, 36.75154], [-3.88421, 36.74071], [-3.89708, 36.74358], [-3.92029, 36.74081], [-3.95726, 36.72609], [-4.00495, 36.74113], [-4.02409, 36.74413], [-4.03293, 36.74226], [-4.06308, 36.74802], [-4.06444, 36.74688], [-4.07086, 36.74646], [-4.06627, 36.74703], [-4.06595, 36.74866], [-4.07204, 36.74863], [-4.08374, 36.74464], [-4.10013, 36.72922], [-4.10794, 36.72567], [-4.16056, 36.71986], [-4.17726, 36.71518], [-4.24877, 36.71031], [-4.2873, 36.71443], [-4.32729, 36.71139], [-4.39519, 36.72222], [-4.41233, 36.71432], [-4.41453, 36.69869], [-4.41563, 36.71384], [-4.41323, 36.71777], [-4.41846, 36.71717], [-4.41774, 36.71475], [-4.42329, 36.712], [-4.41729, 36.71234], [-4.42286, 36.71041], [-4.41905, 36.70787], [-4.41824, 36.70108], [-4.42754, 36.70131], [-4.42562, 36.70482], [-4.4257, 36.71002], [-4.42852, 36.70272], [-4.43361, 36.70158], [-4.44365, 36.68462], [-4.44386, 36.68284], [-4.44117, 36.68203], [-4.4414, 36.68107], [-4.44466, 36.68154], [-4.4543, 36.66396], [-4.46143, 36.66098], [-4.48179, 36.63938], [-4.50682, 36.6041], [-4.50961, 36.59881], [-4.50771, 36.59749], [-4.51173, 36.59306], [-4.51266, 36.59251], [-4.51376, 36.59273], [-4.51217, 36.593], [-4.50898, 36.59682], [-4.51402, 36.5977], [-4.51237, 36.59373], [-4.51917, 36.59457], [-4.53883, 36.57857], [-4.55897, 36.58035], [-4.58512, 36.57368], [-4.59894, 36.56267], [-4.60349, 36.56294], [-4.6169, 36.54542], [-4.6156, 36.54225], [-4.61903, 36.53981], [-4.61652, 36.53886], [-4.61396, 36.54324], [-4.61541, 36.54003], [-4.61649, 36.53856], [-4.62106, 36.53762], [-4.63102, 36.51551], [-4.63842, 36.50702], [-4.67584, 36.50351], [-4.69471, 36.49005], [-4.73103, 36.48673], [-4.73821, 36.48524], [-4.73914, 36.48302], [-4.74052, 36.48265], [-4.73914, 36.48333], [-4.74037, 36.48595], [-4.73958, 36.48341], [-4.74328, 36.48275], [-4.86092, 36.50728], [-4.91218, 36.50557], [-4.92234, 36.50002], [-4.93508, 36.49976], [-4.94512, 36.49319], [-4.94828, 36.49], [-4.94787, 36.48865], [-4.95267, 36.48319], [-4.95496, 36.48303], [-4.95182, 36.4844], [-4.94934, 36.48753], [-4.95013, 36.4887], [-4.95441, 36.48596], [-4.95295, 36.48427], [-4.95912, 36.48502], [-4.97785, 36.47753], [-5.00589, 36.45953], [-5.03299, 36.46129], [-5.05968, 36.45013], [-5.08166, 36.45039], [-5.10839, 36.43378], [-5.14035, 36.42599], [-5.15649, 36.41187], [-5.15522, 36.41624], [-5.16036, 36.41424], [-5.158, 36.41281], [-5.16587, 36.41656], [-5.177, 36.41433], [-5.21109, 36.37972], [-5.21685, 36.37925], [-5.22004, 36.37541], [-5.22783, 36.35414], [-5.22799, 36.35571], [-5.23094, 36.35673], [-5.2315, 36.35564], [-5.22843, 36.35507], [-5.247, 36.31097], [-5.25152, 36.3104]]]}}, {"type": "Feature", "properties": {"province": "Sevilla"}, "geometry": {"type": "Polygon", "coordinates": [[[-5.83364, 36.91541], [-5.84551, 36.91521], [-5.86672, 36.89518], [-5.87652, 36.89471], [-5.89358, 36.85158], [-5.88879, 36.8433], [-5.92535, 36.85307], [-5.95285, 36.85313], [-5.97312, 36.84419], [-6.10524, 36.85742], [-6.12199, 36.86379], [-6.15615, 36.88565], [-6.18716, 36.89359], [-6.20868, 36.89343], [-6.23099, 36.89811], [-6.245, 36.89264], [-6.25378, 36.8928], [-6.26385, 36.89777], [-6.27529, 36.91093], [-6.33101, 36.8988], [-6.37825, 36.93391], [-6.36381, 36.9458], [-6.35972, 36.95972], [-6.36117, 36.9719], [-6.35394, 36.98849], [-6.35925, 37.00618], [-6.3787, 37.04442], [-6.38615, 37.08039], [-6.37663, 37.09759], [-6.35631, 37.11064], [-6.36009, 37.11729], [-6.34236, 37.12298], [-6.34318, 37.12801], [-6.35967, 37.13843], [-6.33612, 37.16962], [-6.35056, 37.18056], [-6.35338, 37.19894], [-6.34525, 37.21828], [-6.35985, 37.2381], [-6.35124, 37.24961], [-6.35433, 37.2555], [-6.34973, 37.26517], [-6.33708, 37.27474], [-6.34255, 37.28103], [-6.33296, 37.29854], [-6.34552, 37.314], [-6.38457, 37.33749], [-6.37822, 37.34608], [-6.36869, 37.34944], [-6.34586, 37.36555], [-6.36196, 37.37574], [-6.35452, 37.3945], [-6.35434, 37.39713], [-6.36209, 37.40147], [-6.35645, 37.41205], [-6.32764, 37.41608], [-6.32146, 37.42057], [-6.31255, 37.41864], [-6.31124, 37.42296], [-6.30566, 37.42555], [-6.30581, 37.43576], [-6.30886, 37.43672], [-6.31232, 37.44565], [-6.32205, 37.45163], [-6.33295, 37.46463], [-6.33877, 37.48516], [-6.34688, 37.49344], [-6.35652, 37.49621], [-6.36209, 37.51334], [-6.36733, 37.51776], [-6.37006, 37.52957], [-6.36647, 37.53563], [-6.37515, 37.54629], [-6.3894, 37.55161], [-6.39346, 37.55676], [-6.40276, 37.58006], [-6.40035, 37.58395], [-6.39546, 37.58267], [-6.3934, 37.58563], [-6.39974, 37.59096], [-6.39929, 37.59835], [-6.40227, 37.59858], [-6.39413, 37.60395], [-6.39557, 37.61122], [-6.40924, 37.61409], [-6.41359, 37.61963], [-6.44317, 37.62337], [-6.44905, 37.6205], [-6.45641, 37.62322], [-6.46635, 37.61979], [-6.47346, 37.6227], [-6.47662, 37.61914], [-6.48286, 37.62119], [-6.48519, 37.61587], [-6.49004, 37.62137], [-6.49666, 37.61701], [-6.50099, 37.61973], [-6.49843, 37.62274], [-6.50094, 37.62131], [-6.50409, 37.62422], [-6.50848, 37.62109], [-6.5086, 37.62483], [-6.51128, 37.62227], [-6.51416, 37.62513], [-6.51981, 37.62071], [-6.52284, 37.62193], [-6.522, 37.61915], [-6.52818, 37.61574], [-6.53707, 37.62104], [-6.53851, 37.62666], [-6.5296, 37.63584], [-6.53679, 37.64073], [-6.53358, 37.64512], [-6.53609, 37.65098], [-6.53346, 37.65713], [-6.52526, 37.66433], [-6.51899, 37.66197], [-6.50852, 37.66838], [-6.50196, 37.66673], [-6.4978, 37.6828], [-6.5013, 37.68885], [-6.49306, 37.6885], [-6.49125, 37.69651], [-6.48547, 37.69682], [-6.47975, 37.70486], [-6.47867, 37.71178], [-6.47344, 37.70909], [-6.47567, 37.71449], [-6.48368, 37.71999], [-6.47569, 37.72493], [-6.44999, 37.7189], [-6.43088, 37.72746], [-6.42348, 37.73407], [-6.39003, 37.74769], [-6.31102, 37.76487], [-6.27849, 37.75841], [-6.25232, 37.76314], [-6.24467, 37.74775], [-6.2542, 37.74737], [-6.25242, 37.74278], [-6.24437, 37.74074], [-6.23516, 37.74439], [-6.233, 37.74294], [-6.23557, 37.73904], [-6.22729, 37.74158], [-6.22702, 37.73889], [-6.2225, 37.73934], [-6.21623, 37.74494], [-6.22011, 37.74812], [-6.21983, 37.75518], [-6.20483, 37.76603], [-6.20874, 37.76947], [-6.21546, 37.79154], [-6.2024, 37.80553], [-6.18466, 37.80967], [-6.17787, 37.79846], [-6.17198, 37.7985], [-6.17285, 37.79591], [-6.16776, 37.79579], [-6.16742, 37.79279], [-6.16311, 37.79423], [-6.15725, 37.79066], [-6.15243, 37.79486], [-6.14711, 37.79371], [-6.143, 37.78731], [-6.13362, 37.78805], [-6.13811, 37.79565], [-6.12649, 37.79656], [-6.12396, 37.8047], [-6.12685, 37.81166], [-6.12094, 37.81636], [-6.12581, 37.81782], [-6.12492, 37.82344], [-6.12879, 37.83166], [-6.13426, 37.83299], [-6.13246, 37.83942], [-6.13875, 37.84449], [-6.14175, 37.85543], [-6.15844, 37.85318], [-6.16366, 37.86009], [-6.15967, 37.86455], [-6.15921, 37.87214], [-6.15046, 37.87507], [-6.14455, 37.88366], [-6.13693, 37.88397], [-6.13202, 37.88003], [-6.12107, 37.88788], [-6.12012, 37.88325], [-6.11025, 37.88482], [-6.113, 37.88925], [-6.12478, 37.89337], [-6.12556, 37.9042], [-6.13188, 37.90855], [-6.1382, 37.90841], [-6.14565, 37.92067], [-6.15127, 37.91603], [-6.15187, 37.91954], [-6.15709, 37.91661], [-6.1643, 37.91778], [-6.16687, 37.9087], [-6.17508, 37.91453], [-6.18474, 37.92833], [-6.18239, 37.93884], [-6.1768, 37.94672], [-6.16794, 37.95194], [-6.16782, 37.95582], [-6.15381, 37.95765], [-6.14878, 37.96201], [-6.14899, 37.96632], [-6.14238, 37.96582], [-6.13733, 37.97181], [-6.12978, 37.97306], [-6.1165, 37.9814], [-6.07785, 37.98463], [-6.05608, 37.99176], [-6.05171, 37.99684], [-6.04027, 37.99491], [-6.03075, 37.99759], [-6.0171, 37.99112], [-6.01305, 37.9934], [-6.00628, 37.99141], [-5.9935, 37.99955], [-5.96092, 37.99975], [-5.95369, 37.99535], [-5.94057, 38.01489], [-5.93692, 38.02794], [-5.93276, 38.03076], [-5.93698, 38.04048], [-5.93422, 38.04687], [-5.92751, 38.05042], [-5.91928, 38.0498], [-5.91791, 38.05643], [-5.90898, 38.06285], [-5.91081, 38.0782], [-5.9293, 38.08921], [-5.92638, 38.10501], [-5.91252, 38.12297], [-5.8953, 38.13053], [-5.88067, 38.13228], [-5.87696, 38.13787], [-5.87868, 38.14632], [-5.87468, 38.15834], [-5.85624, 38.16166], [-5.85558, 38.16883], [-5.85152, 38.17191], [-5.83786, 38.17443], [-5.82309, 38.16986], [-5.82278, 38.17547], [-5.81124, 38.17819], [-5.81063, 38.17361], [-5.80372, 38.17825], [-5.79943, 38.17458], [-5.7817, 38.18588], [-5.75728, 38.18056], [-5.75736, 38.1847], [-5.75264, 38.18507], [-5.74947, 38.19002], [-5.72816, 38.19742], [-5.7135, 38.18585], [-5.70788, 38.1883], [-5.70594, 38.18514], [-5.69473, 38.18652], [-5.69456, 38.18351], [-5.69879, 38.18271], [-5.69787, 38.17967], [-5.68861, 38.18188], [-5.68884, 38.17122], [-5.68406, 38.15798], [-5.69501, 38.17109], [-5.702, 38.16723], [-5.70579, 38.16938], [-5.70556, 38.16362], [-5.69526, 38.14971], [-5.70897, 38.14224], [-5.71541, 38.13383], [-5.7308, 38.1371], [-5.73882, 38.13282], [-5.74074, 38.12654], [-5.7341, 38.10948], [-5.7349, 38.08625], [-5.71957, 38.08507], [-5.71043, 38.08105], [-5.69363, 38.08374], [-5.66936, 38.10176], [-5.66703, 38.10908], [-5.6325, 38.13856], [-5.58479, 38.13171], [-5.58098, 38.12801], [-5.58168, 38.11547], [-5.55735, 38.10796], [-5.53878, 38.09381], [-5.53958, 38.08215], [-5.52685, 38.07514], [-5.52371, 38.06593], [-5.49513, 38.04184], [-5.48903, 38.02894], [-5.49356, 37.99867], [-5.478, 37.98357], [-5.47558, 37.97524], [-5.47129, 37.97459], [-5.46924, 37.97014], [-5.45288, 37.96731], [-5.4486, 37.96174], [-5.43589, 37.95791], [-5.4348, 37.95453], [-5.41551, 37.94275], [-5.41884, 37.93068], [-5.42189, 37.92799], [-5.42342, 37.93037], [-5.42492, 37.9259], [-5.41706, 37.92732], [-5.42098, 37.92434], [-5.41782, 37.92023], [-5.42315, 37.91709], [-5.4189, 37.917], [-5.41811, 37.90656], [-5.41469, 37.90408], [-5.41498, 37.89775], [-5.42273, 37.8894], [-5.41673, 37.88444], [-5.41564, 37.87911], [-5.41858, 37.87739], [-5.41512, 37.8753], [-5.41628, 37.86964], [-5.41168, 37.87137], [-5.40605, 37.86258], [-5.39555, 37.86177], [-5.38314, 37.85189], [-5.36816, 37.84964], [-5.36051, 37.84343], [-5.34476, 37.84017], [-5.346, 37.83563], [-5.33961, 37.83243], [-5.34515, 37.82692], [-5.34185, 37.82179], [-5.34738, 37.81189], [-5.34909, 37.79418], [-5.34323, 37.78892], [-5.33017, 37.78511], [-5.3282, 37.7783], [-5.30922, 37.77389], [-5.30985, 37.76594], [-5.31464, 37.76489], [-5.31844, 37.75809], [-5.31236, 37.7523], [-5.30449, 37.73039], [-5.30356, 37.72071], [-5.31122, 37.70939], [-5.30877, 37.70553], [-5.31566, 37.69546], [-5.32824, 37.69274], [-5.33518, 37.69705], [-5.33639, 37.70611], [-5.34963, 37.7039], [-5.36524, 37.69533], [-5.37093, 37.68615], [-5.37118, 37.6784], [-5.37443, 37.6772], [-5.38582, 37.68139], [-5.39394, 37.69249], [-5.40644, 37.69033], [-5.41279, 37.68338], [-5.41499, 37.67546], [-5.40901, 37.65926], [-5.39796, 37.66212], [-5.3936, 37.65598], [-5.39826, 37.64962], [-5.4144, 37.64709], [-5.41348, 37.64442], [-5.41005, 37.64495], [-5.41099, 37.64094], [-5.40693, 37.64122], [-5.40754, 37.63841], [-5.40175, 37.63649], [-5.39866, 37.62739], [-5.38206, 37.61463], [-5.38154, 37.61089], [-5.35901, 37.60424], [-5.35652, 37.593], [-5.35866, 37.58453], [-5.34503, 37.58631], [-5.34393, 37.59316], [-5.32292, 37.61149], [-5.3233, 37.61425], [-5.29977, 37.62289], [-5.27379, 37.62549], [-5.21194, 37.66347], [-5.17624, 37.68036], [-5.16087, 37.6725], [-5.15019, 37.66053], [-5.13656, 37.66823], [-5.12007, 37.66751], [-5.10808, 37.6629], [-5.11431, 37.69031], [-5.1298, 37.69866], [-5.11321, 37.70223], [-5.1087, 37.6995], [-5.09486, 37.67616], [-5.09921, 37.6703], [-5.0827, 37.66083], [-5.07054, 37.65986], [-5.07757, 37.66503], [-5.07822, 37.66974], [-5.08442, 37.67019], [-5.09137, 37.6773], [-5.09102, 37.68319], [-5.08627, 37.68857], [-5.08936, 37.69508], [-5.08692, 37.69835], [-5.07509, 37.70128], [-5.07297, 37.70769], [-5.04723, 37.71829], [-5.00112, 37.70785], [-4.99779, 37.70069], [-4.98984, 37.69463], [-4.99159, 37.69286], [-4.98777, 37.69042], [-4.98414, 37.67812], [-4.97198, 37.67286], [-4.9544, 37.65254], [-4.95852, 37.62173], [-4.96621, 37.61064], [-4.96918, 37.61237], [-4.97477, 37.5989], [-4.96623, 37.61055], [-4.96015, 37.60876], [-4.95716, 37.61321], [-4.94343, 37.61696], [-4.94105, 37.62075], [-4.93173, 37.61659], [-4.93489, 37.59984], [-4.93023, 37.58956], [-4.93575, 37.58604], [-4.93075, 37.57589], [-4.93807, 37.5699], [-4.93159, 37.56276], [-4.93237, 37.5538], [-4.93625, 37.55024], [-4.93196, 37.54597], [-4.94061, 37.53684], [-4.94011, 37.52765], [-4.94464, 37.52194], [-4.94962, 37.52191], [-4.93368, 37.51979], [-4.93482, 37.5125], [-4.92716, 37.51348], [-4.93116, 37.50596], [-4.92421, 37.50022], [-4.90664, 37.49977], [-4.90743, 37.49501], [-4.91641, 37.49324], [-4.91636, 37.48445], [-4.91271, 37.48247], [-4.91309, 37.48661], [-4.90876, 37.48499], [-4.91117, 37.47767], [-4.90698, 37.47534], [-4.90433, 37.46673], [-4.89537, 37.45974], [-4.88898, 37.46119], [-4.88335, 37.45306], [-4.8756, 37.45033], [-4.88369, 37.44503], [-4.88474, 37.43798], [-4.85433, 37.43939], [-4.84064, 37.43602], [-4.83798, 37.42208], [-4.84207, 37.41504], [-4.84981, 37.41066], [-4.84521, 37.40358], [-4.84101, 37.40424], [-4.84382, 37.39959], [-4.83781, 37.39835], [-4.83097, 37.3904], [-4.83015, 37.3841], [-4.8252, 37.38335], [-4.82602, 37.37908], [-4.81469, 37.37753], [-4.81473, 37.37261], [-4.82361, 37.36876], [-4.82213, 37.35819], [-4.79993, 37.34449], [-4.78223, 37.3285], [-4.78009, 37.33541], [-4.77565, 37.33304], [-4.76745, 37.33773], [-4.74873, 37.33091], [-4.72922, 37.33533], [-4.72606, 37.34183], [-4.73295, 37.34278], [-4.72261, 37.34643], [-4.72491, 37.35342], [-4.71867, 37.3585], [-4.71434, 37.35313], [-4.70356, 37.35051], [-4.70384, 37.34669], [-4.69641, 37.34724], [-4.69434, 37.34272], [-4.68472, 37.34072], [-4.68682, 37.33123], [-4.6826, 37.33114], [-4.67978, 37.33683], [-4.6707, 37.33492], [-4.67925, 37.32957], [-4.66834, 37.3265], [-4.66753, 37.3198], [-4.68102, 37.32389], [-4.67871, 37.31832], [-4.6839, 37.31522], [-4.677, 37.30732], [-4.66684, 37.31003], [-4.65745, 37.30439], [-4.66588, 37.29938], [-4.66055, 37.29522], [-4.66225, 37.29357], [-4.67068, 37.29775], [-4.67216, 37.30202], [-4.67522, 37.30125], [-4.67547, 37.2913], [-4.68039, 37.28943], [-4.66276, 37.28553], [-4.65766, 37.2752], [-4.65403, 37.27536], [-4.65153, 37.27153], [-4.65379, 37.26474], [-4.65094, 37.25634], [-4.66205, 37.25768], [-4.6654, 37.25365], [-4.66942, 37.25569], [-4.67003, 37.25257], [-4.67654, 37.25808], [-4.68259, 37.25634], [-4.68451, 37.25226], [-4.69103, 37.25185], [-4.69883, 37.25681], [-4.71403, 37.25284], [-4.71969, 37.2597], [-4.73004, 37.25346], [-4.73575, 37.24483], [-4.71795, 37.23989], [-4.73231, 37.22615], [-4.72721, 37.21111], [-4.71127, 37.20687], [-4.71363, 37.2017], [-4.70861, 37.19769], [-4.73302, 37.1849], [-4.76002, 37.17726], [-4.76165, 37.17098], [-4.77984, 37.16668], [-4.78108, 37.15979], [-4.78544, 37.15609], [-4.79123, 37.16008], [-4.79158, 37.15486], [-4.79525, 37.1541], [-4.8012, 37.16012], [-4.79892, 37.17213], [-4.80403, 37.1733], [-4.8061, 37.17055], [-4.81433, 37.17962], [-4.82222, 37.17897], [-4.82769, 37.18688], [-4.81871, 37.1919], [-4.82222, 37.19552], [-4.81852, 37.19618], [-4.82466, 37.20037], [-4.85316, 37.19843], [-4.8537, 37.19369], [-4.8589, 37.19071], [-4.85589, 37.17821], [-4.86018, 37.17557], [-4.8567, 37.17357], [-4.87361, 37.15917], [-4.88045, 37.16327], [-4.88985, 37.15505], [-4.89762, 37.15603], [-4.9003, 37.15971], [-4.89611, 37.16733], [-4.90403, 37.17522], [-4.90511, 37.18186], [-4.90757, 37.17487], [-4.92193, 37.17501], [-4.92516, 37.17066], [-4.9396, 37.1757], [-4.94266, 37.15759], [-4.90284, 37.1376], [-4.90828, 37.11528], [-4.9178, 37.11061], [-4.92267, 37.10654], [-4.92145, 37.10433], [-4.95227, 37.09436], [-4.95986, 37.08523], [-4.97914, 37.07277], [-4.98008, 37.06883], [-5.00959, 37.05474], [-5.02671, 37.05168], [-5.02408, 37.04598], [-5.02796, 37.04407], [-5.03358, 37.04893], [-5.04679, 37.03995], [-5.05309, 37.0306], [-5.08339, 37.03142], [-5.10337, 37.02569], [-5.11194, 37.01949], [-5.11358, 37.02533], [-5.11753, 37.02392], [-5.11937, 37.02891], [-5.12284, 37.02769], [-5.13252, 37.01172], [-5.14212, 37.00605], [-5.16264, 36.98142], [-5.18981, 36.96973], [-5.19166, 36.96641], [-5.20668, 36.96225], [-5.2259, 36.94184], [-5.23722, 36.94322], [-5.25673, 36.96404], [-5.26239, 36.97578], [-5.26828, 36.97843], [-5.27403, 36.99057], [-5.30022, 37.01374], [-5.3021, 37.03736], [-5.3375, 37.01174], [-5.34514, 36.99754], [-5.35968, 36.99249], [-5.36076, 36.98516], [-5.3653, 36.98566], [-5.39239, 36.97328], [-5.41336, 36.95402], [-5.4168, 36.94535], [-5.41366, 36.93979], [-5.43895, 36.93529], [-5.44126, 36.94396], [-5.44627, 36.94644], [-5.44592, 36.95667], [-5.45456, 36.9612], [-5.45717, 36.97414], [-5.46029, 36.9753], [-5.45958, 36.97851], [-5.45604, 36.97815], [-5.44247, 36.98986], [-5.43524, 36.99112], [-5.42011, 37.01321], [-5.42774, 37.04457], [-5.43369, 37.05245], [-5.44791, 37.05022], [-5.46269, 37.04123], [-5.47312, 37.04294], [-5.49688, 37.0397], [-5.51099, 37.0336], [-5.4953, 37.01147], [-5.47304, 36.99523], [-5.46973, 36.98395], [-5.48143, 36.97237], [-5.49343, 36.97092], [-5.50234, 36.95832], [-5.51389, 36.95654], [-5.52479, 36.93733], [-5.53276, 36.93585], [-5.53577, 36.92998], [-5.54612, 36.93018], [-5.5506, 36.92052], [-5.53378, 36.89354], [-5.5834, 36.91509], [-5.58711, 36.94701], [-5.59492, 36.94467], [-5.60628, 36.95079], [-5.61025, 36.94142], [-5.61809, 36.94016], [-5.62614, 36.95444], [-5.63283, 36.9506], [-5.64967, 36.95432], [-5.66757, 36.97599], [-5.69461, 36.95678], [-5.69618, 36.93528], [-5.7032, 36.9256], [-5.71324, 36.92058], [-5.72713, 36.9215], [-5.73631, 36.91822], [-5.74402, 36.92294], [-5.763, 36.92572], [-5.80393, 36.92552], [-5.83364, 36.91541]], [[-5.08489, 37.64366], [-5.04017, 37.62574], [-5.04809, 37.60819], [-5.03114, 37.61064], [-5.02644, 37.59451], [-5.0183, 37.5923], [-5.02508, 37.59499], [-5.03376, 37.62112], [-5.02925, 37.62668], [-5.02978, 37.63205], [-5.02581, 37.63447], [-5.03084, 37.641], [-5.04706, 37.63128], [-5.05356, 37.64182], [-5.08417, 37.64726], [-5.08489, 37.64366]]]}}]}